{
  "type": "FeatureCollection",
  "features": [
    {
      "type": "Feature",
      "properties": {
        "P12_001": 10011,
        "P12_002": "百舌鳥・古市古墳群（仁徳天皇陵、応神天皇陵）",
        "P12_003": "27",
        "P12_004": "27141、27222",
        "P12_005": "史跡",
        "P12_006": "堺市　および　羽曳野市",
        "P12_007": -1
      },
      "geometry": {
        "type": "Point",
        "coordinates": [
          135.48730182113633,
          34.56361387179188
        ]
      }
    },
    {
      "type": "Feature",
      "properties": {
        "P12_001": 10002,
        "P12_002": "四天王寺",
        "P12_003": "27",
        "P12_004": "27109",
        "P12_005": "神社・寺院・教会",
        "P12_006": "大阪市天王寺区四天王寺1-11-8",
        "P12_007": -1
      },
      "geometry": {
        "type": "Point",
        "coordinates": [
          135.51647576008423,
          34.653806930063084
        ]
      }
    },
    {
      "type": "Feature",
      "properties": {
        "P12_001": 10003,
        "P12_002": "住吉大社",
        "P12_003": "27",
        "P12_004": "27120",
        "P12_005": "神社・寺院・教会",
        "P12_006": "大阪市住吉区住吉2-9",
        "P12_007": -1
      },
      "geometry": {
        "type": "Point",
        "coordinates": [
          135.4930417021738,
          34.613148887828494
        ]
      }
    },
    {
      "type": "Feature",
      "properties": {
        "P12_001": 10010,
        "P12_002": "大阪城（大阪城公園）",
        "P12_003": "27",
        "P12_004": "27128",
        "P12_005": "城跡・城郭・宮殿",
        "P12_006": "大阪市中央区大阪城1-1",
        "P12_007": -1
      },
      "geometry": {
        "type": "Point",
        "coordinates": [
          135.52588038000857,
          34.68630391982624
        ]
      }
    },
    {
      "type": "Feature",
      "properties": {
        "P12_001": 10009,
        "P12_002": "道頓堀",
        "P12_003": "27",
        "P12_004": "27128",
        "P12_005": "集落・街",
        "P12_006": "大阪市中央区",
        "P12_007": -1
      },
      "geometry": {
        "type": "Point",
        "coordinates": [
          135.5027159999739,
          34.66855200005075
        ]
      }
    },
    {
      "type": "Feature",
      "properties": {
        "P12_001": 10005,
        "P12_002": "大阪市中央公会堂",
        "P12_003": "27",
        "P12_004": "27127",
        "P12_005": "建造物",
        "P12_006": "大阪市北区中之島1",
        "P12_007": -1
      },
      "geometry": {
        "type": "Point",
        "coordinates": [
          135.50402395715471,
          34.693540981484745
        ]
      }
    },
    {
      "type": "Feature",
      "properties": {
        "P12_001": 10014,
        "P12_002": "太陽の塔",
        "P12_003": "27",
        "P12_004": "27205",
        "P12_005": "建造物",
        "P12_006": "吹田市千里万博公園1-1",
        "P12_007": -1
      },
      "geometry": {
        "type": "Point",
        "coordinates": [
          135.5324542299527,
          34.80954545021867
        ]
      }
    },
    {
      "type": "Feature",
      "properties": {
        "P12_001": 10004,
        "P12_002": "天神祭",
        "P12_003": "27",
        "P12_004": "27127",
        "P12_005": "年中行事",
        "P12_006": "大阪市北区天神橋2-1-8",
        "P12_007": -1
      },
      "geometry": {
        "type": "Point",
        "coordinates": [
          135.51266500004573,
          34.696026000033925
        ]
      }
    },
    {
      "type": "Feature",
      "properties": {
        "P12_001": 10012,
        "P12_002": "岸和田地車祭",
        "P12_003": "27",
        "P12_004": "27202",
        "P12_005": "年中行事",
        "P12_006": "岸和田市",
        "P12_007": -1
      },
      "geometry": {
        "type": "Point",
        "coordinates": [
          135.37813251004158,
          34.46121316985859
        ]
      }
    },
    {
      "type": "Feature",
      "properties": {
        "P12_001": 10013,
        "P12_002": "国立民族学博物館",
        "P12_003": "27",
        "P12_004": "27205",
        "P12_005": "博物館・美術館",
        "P12_006": "吹田市千里万博公園10-1",
        "P12_007": -1
      },
      "geometry": {
        "type": "Point",
        "coordinates": [
          135.52986884007095,
          34.81278759986011
        ]
      }
    },
    {
      "type": "Feature",
      "properties": {
        "P12_001": 10001,
        "P12_002": "ユニバーサル・スタジオ・ジャパン",
        "P12_003": "27",
        "P12_004": "27104",
        "P12_005": "テーマ・公園テーマ施設",
        "P12_006": "大阪市此花区此花区桜島2-1-33",
        "P12_007": -1
      },
      "geometry": {
        "type": "Point",
        "coordinates": [
          135.43233799996892,
          34.66544199978419
        ]
      }
    },
    {
      "type": "Feature",
      "properties": {
        "P12_001": 10008,
        "P12_002": "大阪のたこ焼き",
        "P12_003": "27",
        "P12_004": "27128",
        "P12_005": "食",
        "P12_006": "大阪市中央区",
        "P12_007": -1
      },
      "geometry": {
        "type": "Point",
        "coordinates": [
          135.5197169999479,
          34.68631699987164
        ]
      }
    },
    {
      "type": "Feature",
      "properties": {
        "P12_001": 10007,
        "P12_002": "国立文楽劇場で上演される文楽",
        "P12_003": "27",
        "P12_004": "27128",
        "P12_005": "芸能・興行・イベント",
        "P12_006": "大阪市中央区日本橋1-12-10",
        "P12_007": -1
      },
      "geometry": {
        "type": "Point",
        "coordinates": [
          135.50865321955678,
          34.66753890969486
        ]
      }
    },
    {
      "type": "Feature",
      "properties": {
        "P12_001": 10006,
        "P12_002": "なんばグランド花月（ＮＧＫ）で上演されるお笑い",
        "P12_003": "27",
        "P12_004": "27128",
        "P12_005": "芸能・興行・イベント",
        "P12_006": "大阪市中央区難波千日前11",
        "P12_007": -1
      },
      "geometry": {
        "type": "Point",
        "coordinates": [
          135.50365600012046,
          34.66498399999476
        ]
      }
    },
    {
      "type": "Feature",
      "properties": {
        "P12_001": 10011,
        "P12_002": "百舌鳥・古市古墳群（仁徳天皇陵、応神天皇陵）",
        "P12_003": "27",
        "P12_004": "27141、27222",
        "P12_005": "史跡",
        "P12_006": "堺市　および　羽曳野市",
        "P12_007": -1
      },
      "geometry": {
        "type": "Point",
        "coordinates": [
          135.60921200003938,
          34.562604000012
        ]
      }
    }
  ],
  "bbox": [
    135.37813251004158,
    34.46121316985859,
    135.60921200003938,
    34.81278759986011
  ]
}