{
  "type": "FeatureCollection",
  "features": [
    {
      "type": "Feature",
      "properties": {
        "P12_001": 10001,
        "P12_002": "和歌山城天守閣",
        "P12_003": "30",
        "P12_004": "30201",
        "P12_005": "‐",
        "P12_006": "和歌山市一番丁3",
        "P12_007": 2
      },
      "geometry": {
        "type": "MultiPoint",
        "coordinates": [
          [
            135.17162222168827,
            34.22762777769981
          ]
        ]
      }
    },
    {
      "type": "Feature",
      "properties": {
        "P12_001": 10002,
        "P12_002": "紀三井寺",
        "P12_003": "30",
        "P12_004": "30201",
        "P12_005": "‐",
        "P12_006": "和歌山市紀三井寺1201",
        "P12_007": 2
      },
      "geometry": {
        "type": "MultiPoint",
        "coordinates": [
          [
            135.19011297993018,
            34.18511089984821
          ]
        ]
      }
    },
    {
      "type": "Feature",
      "properties": {
        "P12_001": 10003,
        "P12_002": "紀伊風土記の丘（資料館のみ）",
        "P12_003": "30",
        "P12_004": "30201",
        "P12_005": "‐",
        "P12_006": "和歌山市岩橋1411",
        "P12_007": 2
      },
      "geometry": {
        "type": "MultiPoint",
        "coordinates": [
          [
            135.22957305585192,
            34.22786000063854
          ]
        ]
      }
    },
    {
      "type": "Feature",
      "properties": {
        "P12_001": 10004,
        "P12_002": "養翠園",
        "P12_003": "30",
        "P12_004": "30201",
        "P12_005": "‐",
        "P12_006": "和歌山市西浜1164",
        "P12_007": 1
      },
      "geometry": {
        "type": "MultiPoint",
        "coordinates": [
          [
            135.1526832602243,
            34.193145130043774
          ]
        ]
      }
    },
    {
      "type": "Feature",
      "properties": {
        "P12_001": 10005,
        "P12_002": "番所庭園",
        "P12_003": "30",
        "P12_004": "30201",
        "P12_005": "‐",
        "P12_006": "和歌山市雑賀崎長尾西原629",
        "P12_007": 2
      },
      "geometry": {
        "type": "MultiPoint",
        "coordinates": [
          [
            135.1401679996535,
            34.19055200057443
          ]
        ]
      }
    },
    {
      "type": "Feature",
      "properties": {
        "P12_001": 10006,
        "P12_002": "和歌山マリーナシティ",
        "P12_003": "30",
        "P12_004": "30201",
        "P12_005": "‐",
        "P12_006": "和歌山市毛見1527",
        "P12_007": 4
      },
      "geometry": {
        "type": "MultiPoint",
        "coordinates": [
          [
            135.1800964802684,
            34.15463853514035
          ]
        ]
      }
    },
    {
      "type": "Feature",
      "properties": {
        "P12_001": 10007,
        "P12_002": "磯の浦海水浴場",
        "P12_003": "30",
        "P12_004": "30201",
        "P12_005": "‐",
        "P12_006": "和歌山市磯の浦",
        "P12_007": 4
      },
      "geometry": {
        "type": "MultiPoint",
        "coordinates": [
          [
            135.09486824977,
            34.2590268335216
          ]
        ]
      }
    },
    {
      "type": "Feature",
      "properties": {
        "P12_001": 10008,
        "P12_002": "片男波海水浴場",
        "P12_003": "30",
        "P12_004": "30201",
        "P12_005": "‐",
        "P12_006": "和歌山市和歌浦南3",
        "P12_007": 4
      },
      "geometry": {
        "type": "MultiPoint",
        "coordinates": [
          [
            135.1723017170507,
            34.18157595356746
          ]
        ]
      }
    },
    {
      "type": "Feature",
      "properties": {
        "P12_001": 10009,
        "P12_002": "紀州おどり「ぶんだら節」",
        "P12_003": "30",
        "P12_004": "30201",
        "P12_005": "‐",
        "P12_006": "和歌山市",
        "P12_007": 1
      },
      "geometry": {
        "type": "MultiPoint",
        "coordinates": [
          [
            135.17080799978942,
            34.23049299975219
          ]
        ]
      }
    },
    {
      "type": "Feature",
      "properties": {
        "P12_001": 10010,
        "P12_002": "磯の浦砂浜まつり",
        "P12_003": "30",
        "P12_004": "30201",
        "P12_005": "‐",
        "P12_006": "和歌山市",
        "P12_007": 1
      },
      "geometry": {
        "type": "MultiPoint",
        "coordinates": [
          [
            135.09125999974924,
            34.26040999982166
          ]
        ]
      }
    },
    {
      "type": "Feature",
      "properties": {
        "P12_001": 10011,
        "P12_002": "おどるんや紀州よさこい祭",
        "P12_003": "30",
        "P12_004": "30201",
        "P12_005": "‐",
        "P12_006": "和歌山市",
        "P12_007": 1
      },
      "geometry": {
        "type": "MultiPoint",
        "coordinates": [
          [
            135.17080799978942,
            34.23049299975219
          ]
        ]
      }
    },
    {
      "type": "Feature",
      "properties": {
        "P12_001": 10012,
        "P12_002": "和歌浦ドラゴンボート選手権",
        "P12_003": "30",
        "P12_004": "30201",
        "P12_005": "‐",
        "P12_006": "和歌山市和歌浦",
        "P12_007": 1
      },
      "geometry": {
        "type": "MultiPoint",
        "coordinates": [
          [
            135.17542899974865,
            34.153654999678565
          ]
        ]
      }
    },
    {
      "type": "Feature",
      "properties": {
        "P12_001": 10013,
        "P12_002": "御橋廊下（紅葉渓庭園）",
        "P12_003": "30",
        "P12_004": "30201",
        "P12_005": "‐",
        "P12_006": "和歌山市一番丁3",
        "P12_007": 2
      },
      "geometry": {
        "type": "MultiPoint",
        "coordinates": [
          [
            135.17079370416616,
            34.2290079357677
          ]
        ]
      }
    },
    {
      "type": "Feature",
      "properties": {
        "P12_001": 10014,
        "P12_002": "日前宮",
        "P12_003": "30",
        "P12_004": "30201",
        "P12_005": "‐",
        "P12_006": "和歌山市秋月365",
        "P12_007": 2
      },
      "geometry": {
        "type": "MultiPoint",
        "coordinates": [
          [
            135.2013102777472,
            34.22887333333773
          ]
        ]
      }
    },
    {
      "type": "Feature",
      "properties": {
        "P12_001": 10015,
        "P12_002": "淡嶋神社",
        "P12_003": "30",
        "P12_004": "30201",
        "P12_005": "‐",
        "P12_006": "和歌山市加太116",
        "P12_007": 2
      },
      "geometry": {
        "type": "MultiPoint",
        "coordinates": [
          [
            135.06686444403897,
            34.273465832981856
          ]
        ]
      }
    },
    {
      "type": "Feature",
      "properties": {
        "P12_001": 10016,
        "P12_002": "四季の郷公園",
        "P12_003": "30",
        "P12_004": "30201",
        "P12_005": "‐",
        "P12_006": "和歌山市明王寺85",
        "P12_007": 1
      },
      "geometry": {
        "type": "MultiPoint",
        "coordinates": [
          [
            135.2591869996803,
            34.216146000037895
          ]
        ]
      }
    },
    {
      "type": "Feature",
      "properties": {
        "P12_001": 10017,
        "P12_002": "浪早ビーチ",
        "P12_003": "30",
        "P12_004": "30201",
        "P12_005": "‐",
        "P12_006": "和歌山市田野",
        "P12_007": 4
      },
      "geometry": {
        "type": "MultiPoint",
        "coordinates": [
          [
            135.14937400060967,
            34.18361199979398
          ]
        ]
      }
    },
    {
      "type": "Feature",
      "properties": {
        "P12_001": 10018,
        "P12_002": "親子つりパーク",
        "P12_003": "30",
        "P12_004": "30201",
        "P12_005": "‐",
        "P12_006": "和歌山市田野101-3",
        "P12_007": 4
      },
      "geometry": {
        "type": "MultiPoint",
        "coordinates": [
          [
            135.14843465153797,
            34.18812030840559
          ]
        ]
      }
    },
    {
      "type": "Feature",
      "properties": {
        "P12_001": 10019,
        "P12_002": "紀州東照宮",
        "P12_003": "30",
        "P12_004": "30201",
        "P12_005": "‐",
        "P12_006": "和歌山市和歌浦西2-1-2",
        "P12_007": 2
      },
      "geometry": {
        "type": "MultiPoint",
        "coordinates": [
          [
            135.16573468580714,
            34.1926275279381
          ]
        ]
      }
    },
    {
      "type": "Feature",
      "properties": {
        "P12_001": 10020,
        "P12_002": "浜の宮ビーチ",
        "P12_003": "30",
        "P12_004": "30201",
        "P12_005": "‐",
        "P12_006": "和歌山市毛見地先",
        "P12_007": 4
      },
      "geometry": {
        "type": "MultiPoint",
        "coordinates": [
          [
            135.18238299937593,
            34.16567500000133
          ]
        ]
      }
    },
    {
      "type": "Feature",
      "properties": {
        "P12_001": 10021,
        "P12_002": "和歌山北港魚釣公園",
        "P12_003": "30",
        "P12_004": "30201",
        "P12_005": "‐",
        "P12_006": "和歌山市湊1675-11",
        "P12_007": 4
      },
      "geometry": {
        "type": "MultiPoint",
        "coordinates": [
          [
            135.1042070787937,
            34.23171926133489
          ]
        ]
      }
    },
    {
      "type": "Feature",
      "properties": {
        "P12_001": 10022,
        "P12_002": "加太海水浴場",
        "P12_003": "30",
        "P12_004": "30201",
        "P12_005": "‐",
        "P12_006": "和歌山市加太",
        "P12_007": 4
      },
      "geometry": {
        "type": "MultiPoint",
        "coordinates": [
          [
            135.0745259996752,
            34.28016599986108
          ]
        ]
      }
    },
    {
      "type": "Feature",
      "properties": {
        "P12_001": 10023,
        "P12_002": "友ヶ島",
        "P12_003": "30",
        "P12_004": "30201",
        "P12_005": "‐",
        "P12_006": "和歌山市友ヶ島",
        "P12_007": 1
      },
      "geometry": {
        "type": "MultiPoint",
        "coordinates": [
          [
            135.01511011503987,
            34.28208210260698
          ],
          [
            135.04620799959957,
            34.29666499988991
          ]
        ]
      }
    },
    {
      "type": "Feature",
      "properties": {
        "P12_001": 10024,
        "P12_002": "和歌浦天満宮",
        "P12_003": "30",
        "P12_004": "30201",
        "P12_005": "‐",
        "P12_006": "和歌山市和歌浦西2-1-24",
        "P12_007": 2
      },
      "geometry": {
        "type": "MultiPoint",
        "coordinates": [
          [
            135.16427269842632,
            34.19163407295417
          ]
        ]
      }
    },
    {
      "type": "Feature",
      "properties": {
        "P12_001": 10025,
        "P12_002": "竈山神社",
        "P12_003": "30",
        "P12_004": "30201",
        "P12_005": "‐",
        "P12_006": "和歌山市和田438",
        "P12_007": 2
      },
      "geometry": {
        "type": "MultiPoint",
        "coordinates": [
          [
            135.20446194466308,
            34.201058610966186
          ]
        ]
      }
    },
    {
      "type": "Feature",
      "properties": {
        "P12_001": 10026,
        "P12_002": "伊太祁曽神社",
        "P12_003": "30",
        "P12_004": "30201",
        "P12_005": "‐",
        "P12_006": "和歌山市伊太祈曽558",
        "P12_007": 2
      },
      "geometry": {
        "type": "MultiPoint",
        "coordinates": [
          [
            135.2499811111394,
            34.20170305525187
          ]
        ]
      }
    },
    {
      "type": "Feature",
      "properties": {
        "P12_001": 10027,
        "P12_002": "和歌山市立博物館",
        "P12_003": "30",
        "P12_004": "30201",
        "P12_005": "‐",
        "P12_006": "和歌山市湊本町3-2",
        "P12_007": 2
      },
      "geometry": {
        "type": "MultiPoint",
        "coordinates": [
          [
            135.1631263892715,
            34.23321444449107
          ]
        ]
      }
    },
    {
      "type": "Feature",
      "properties": {
        "P12_001": 10028,
        "P12_002": "和歌山県立美術館",
        "P12_003": "30",
        "P12_004": "30201",
        "P12_005": "‐",
        "P12_006": "和歌山市吹上1-4-14",
        "P12_007": 2
      },
      "geometry": {
        "type": "MultiPoint",
        "coordinates": [
          [
            135.1712102782318,
            34.22511805495435
          ]
        ]
      }
    },
    {
      "type": "Feature",
      "properties": {
        "P12_001": 10029,
        "P12_002": "和歌山県立博物館",
        "P12_003": "30",
        "P12_004": "30201",
        "P12_005": "‐",
        "P12_006": "和歌山市吹上1-4-14",
        "P12_007": 2
      },
      "geometry": {
        "type": "MultiPoint",
        "coordinates": [
          [
            135.1717173996384,
            34.22447996258023
          ]
        ]
      }
    },
    {
      "type": "Feature",
      "properties": {
        "P12_001": 10030,
        "P12_002": "和歌山カントリー倶楽部",
        "P12_003": "30",
        "P12_004": "30201",
        "P12_005": "‐",
        "P12_006": "和歌山市梅原585",
        "P12_007": 4
      },
      "geometry": {
        "type": "MultiPoint",
        "coordinates": [
          [
            135.13631972237738,
            34.27015444467196
          ]
        ]
      }
    },
    {
      "type": "Feature",
      "properties": {
        "P12_001": 10031,
        "P12_002": "小倉カントリー倶楽部",
        "P12_003": "30",
        "P12_004": "30201",
        "P12_005": "‐",
        "P12_006": "和歌山市下三毛勝宝山879",
        "P12_007": 4
      },
      "geometry": {
        "type": "MultiPoint",
        "coordinates": [
          [
            135.29970999961688,
            34.24040800012915
          ]
        ]
      }
    },
    {
      "type": "Feature",
      "properties": {
        "P12_001": 10032,
        "P12_002": "西庄ふれあいの郷",
        "P12_003": "30",
        "P12_004": "30201",
        "P12_005": "‐",
        "P12_006": "和歌山市西庄1107-36",
        "P12_007": 4
      },
      "geometry": {
        "type": "MultiPoint",
        "coordinates": [
          [
            135.11722285345195,
            34.2685816823988
          ]
        ]
      }
    },
    {
      "type": "Feature",
      "properties": {
        "P12_001": 10033,
        "P12_002": "和歌山市観光土産品センター",
        "P12_003": "30",
        "P12_004": "30201",
        "P12_005": "‐",
        "P12_006": "和歌山市一番丁",
        "P12_007": 5
      },
      "geometry": {
        "type": "MultiPoint",
        "coordinates": [
          [
            135.17021933055776,
            34.22909480937801
          ]
        ]
      }
    },
    {
      "type": "Feature",
      "properties": {
        "P12_001": 10034,
        "P12_002": "紀の川サービスエリア",
        "P12_003": "30",
        "P12_004": "30201",
        "P12_005": "‐",
        "P12_006": "和歌山市北野",
        "P12_007": 6
      },
      "geometry": {
        "type": "MultiPoint",
        "coordinates": [
          [
            135.250885999989,
            34.27591299978519
          ]
        ]
      }
    },
    {
      "type": "Feature",
      "properties": {
        "P12_001": 10035,
        "P12_002": "万葉館",
        "P12_003": "30",
        "P12_004": "30201",
        "P12_005": "‐",
        "P12_006": "和歌山市和歌浦南3-1700",
        "P12_007": 2
      },
      "geometry": {
        "type": "MultiPoint",
        "coordinates": [
          [
            135.1733855682894,
            34.18172330748473
          ]
        ]
      }
    },
    {
      "type": "Feature",
      "properties": {
        "P12_001": 10036,
        "P12_002": "井出商店",
        "P12_003": "30",
        "P12_004": "30201",
        "P12_005": "‐",
        "P12_006": "和歌山市田中町4-84",
        "P12_007": 6
      },
      "geometry": {
        "type": "MultiPoint",
        "coordinates": [
          [
            135.18946805630583,
            34.22853083283172
          ]
        ]
      }
    },
    {
      "type": "Feature",
      "properties": {
        "P12_001": 10037,
        "P12_002": "竹燈夜",
        "P12_003": "30",
        "P12_004": "30201",
        "P12_005": "‐",
        "P12_006": "和歌山市",
        "P12_007": 1
      },
      "geometry": {
        "type": "MultiPoint",
        "coordinates": [
          [
            135.1738180001007,
            34.22928499980293
          ]
        ]
      }
    },
    {
      "type": "Feature",
      "properties": {
        "P12_001": 10038,
        "P12_002": "和歌山市民茶会",
        "P12_003": "30",
        "P12_004": "30201",
        "P12_005": "‐",
        "P12_006": "和歌山市",
        "P12_007": 1
      },
      "geometry": {
        "type": "MultiPoint",
        "coordinates": [
          [
            135.17594800030008,
            34.22522599968022
          ]
        ]
      }
    },
    {
      "type": "Feature",
      "properties": {
        "P12_001": 10039,
        "P12_002": "食祭",
        "P12_003": "30",
        "P12_004": "30201",
        "P12_005": "‐",
        "P12_006": "和歌山市",
        "P12_007": 1
      },
      "geometry": {
        "type": "MultiPoint",
        "coordinates": [
          [
            135.17020099967647,
            34.22864000063555
          ]
        ]
      }
    },
    {
      "type": "Feature",
      "properties": {
        "P12_001": 10040,
        "P12_002": "和歌祭",
        "P12_003": "30",
        "P12_004": "30201",
        "P12_005": "‐",
        "P12_006": "和歌山市",
        "P12_007": 1
      },
      "geometry": {
        "type": "MultiPoint",
        "coordinates": [
          [
            135.16573468580714,
            34.1926275279381
          ]
        ]
      }
    },
    {
      "type": "Feature",
      "properties": {
        "P12_001": 10041,
        "P12_002": "スイム駅伝",
        "P12_003": "30",
        "P12_004": "30201",
        "P12_005": "‐",
        "P12_006": "和歌山市",
        "P12_007": 1
      },
      "geometry": {
        "type": "MultiPoint",
        "coordinates": [
          [
            135.17325899950333,
            34.18007500036106
          ]
        ]
      }
    },
    {
      "type": "Feature",
      "properties": {
        "P12_001": 10042,
        "P12_002": "港まつり",
        "P12_003": "30",
        "P12_004": "30201",
        "P12_005": "‐",
        "P12_006": "和歌山市",
        "P12_007": 1
      },
      "geometry": {
        "type": "MultiPoint",
        "coordinates": [
          [
            135.15022900046802,
            34.195833000392724
          ]
        ]
      }
    },
    {
      "type": "Feature",
      "properties": {
        "P12_001": 10043,
        "P12_002": "商工まつり",
        "P12_003": "30",
        "P12_004": "30201",
        "P12_005": "‐",
        "P12_006": "和歌山市",
        "P12_007": 1
      },
      "geometry": {
        "type": "MultiPoint",
        "coordinates": [
          [
            135.19083900081932,
            34.22114400029545
          ]
        ]
      }
    },
    {
      "type": "Feature",
      "properties": {
        "P12_001": 10044,
        "P12_002": "ベイマラソン（参加者）",
        "P12_003": "30",
        "P12_004": "30201",
        "P12_005": "‐",
        "P12_006": "和歌山市",
        "P12_007": 1
      },
      "geometry": {
        "type": "MultiPoint",
        "coordinates": [
          [
            135.17080799978942,
            34.23049299975219
          ]
        ]
      }
    },
    {
      "type": "Feature",
      "properties": {
        "P12_001": 10045,
        "P12_002": "万葉薪能",
        "P12_003": "30",
        "P12_004": "30201",
        "P12_005": "‐",
        "P12_006": "和歌山市",
        "P12_007": 1
      },
      "geometry": {
        "type": "MultiPoint",
        "coordinates": [
          [
            135.1733855682894,
            34.18172330748473
          ]
        ]
      }
    },
    {
      "type": "Feature",
      "properties": {
        "P12_001": 10046,
        "P12_002": "ぶらくりスウィング",
        "P12_003": "30",
        "P12_004": "30201",
        "P12_005": "‐",
        "P12_006": "和歌山市",
        "P12_007": 1
      },
      "geometry": {
        "type": "MultiPoint",
        "coordinates": [
          [
            135.17080799978942,
            34.23049299975219
          ]
        ]
      }
    },
    {
      "type": "Feature",
      "properties": {
        "P12_001": 10047,
        "P12_002": "えび祭り",
        "P12_003": "30",
        "P12_004": "30201",
        "P12_005": "‐",
        "P12_006": "和歌山市",
        "P12_007": 1
      },
      "geometry": {
        "type": "MultiPoint",
        "coordinates": [
          [
            135.17080799978942,
            34.23049299975219
          ]
        ]
      }
    },
    {
      "type": "Feature",
      "properties": {
        "P12_001": 10048,
        "P12_002": "雛流し",
        "P12_003": "30",
        "P12_004": "30201",
        "P12_005": "‐",
        "P12_006": "和歌山市",
        "P12_007": 1
      },
      "geometry": {
        "type": "MultiPoint",
        "coordinates": [
          [
            135.06686444403897,
            34.273465832981856
          ]
        ]
      }
    },
    {
      "type": "Feature",
      "properties": {
        "P12_001": 10049,
        "P12_002": "天神祭",
        "P12_003": "30",
        "P12_004": "30201",
        "P12_005": "‐",
        "P12_006": "和歌山市",
        "P12_007": 1
      },
      "geometry": {
        "type": "MultiPoint",
        "coordinates": [
          [
            135.16427269842632,
            34.19163407295417
          ]
        ]
      }
    },
    {
      "type": "Feature",
      "properties": {
        "P12_001": 10050,
        "P12_002": "ＷＡＫＡＹＡＭＡＣＵＰ",
        "P12_003": "30",
        "P12_004": "30201",
        "P12_005": "‐",
        "P12_006": "和歌山市",
        "P12_007": 1
      },
      "geometry": {
        "type": "MultiPoint",
        "coordinates": [
          [
            135.17080799978942,
            34.23049299975219
          ]
        ]
      }
    },
    {
      "type": "Feature",
      "properties": {
        "P12_001": 10051,
        "P12_002": "木本八幡宮に奉納の獅子舞",
        "P12_003": "30",
        "P12_004": "30201",
        "P12_005": "‐",
        "P12_006": "和歌山市",
        "P12_007": 1
      },
      "geometry": {
        "type": "MultiPoint",
        "coordinates": [
          [
            135.12163599940186,
            34.265096000080405
          ]
        ]
      }
    },
    {
      "type": "Feature",
      "properties": {
        "P12_001": 10052,
        "P12_002": "おっとっと広場",
        "P12_003": "30",
        "P12_004": "30201",
        "P12_005": "‐",
        "P12_006": "和歌山市",
        "P12_007": 1
      },
      "geometry": {
        "type": "MultiPoint",
        "coordinates": [
          [
            135.16140099945665,
            34.187424000217504
          ]
        ]
      }
    },
    {
      "type": "Feature",
      "properties": {
        "P12_001": 10053,
        "P12_002": "孫市まつり",
        "P12_003": "30",
        "P12_004": "30201",
        "P12_005": "‐",
        "P12_006": "和歌山市",
        "P12_007": 1
      },
      "geometry": {
        "type": "MultiPoint",
        "coordinates": [
          [
            135.17093899953522,
            34.23618599968421
          ]
        ]
      }
    },
    {
      "type": "Feature",
      "properties": {
        "P12_001": 10054,
        "P12_002": "十日戎",
        "P12_003": "30",
        "P12_004": "30201",
        "P12_005": "‐",
        "P12_006": "和歌山市",
        "P12_007": 1
      },
      "geometry": {
        "type": "MultiPoint",
        "coordinates": [
          [
            135.16491200038854,
            34.2322440004603
          ]
        ]
      }
    },
    {
      "type": "Feature",
      "properties": {
        "P12_001": 10055,
        "P12_002": "桜まつり",
        "P12_003": "30",
        "P12_004": "30201",
        "P12_005": "‐",
        "P12_006": "和歌山市",
        "P12_007": 1
      },
      "geometry": {
        "type": "MultiPoint",
        "coordinates": [
          [
            135.17080799978942,
            34.23049299975219
          ]
        ]
      }
    },
    {
      "type": "Feature",
      "properties": {
        "P12_001": 10056,
        "P12_002": "県立自然博物館",
        "P12_003": "30",
        "P12_004": "30202",
        "P12_005": "‐",
        "P12_006": "海南市船尾370-1",
        "P12_007": 2
      },
      "geometry": {
        "type": "MultiPoint",
        "coordinates": [
          [
            135.192081944826,
            34.15864722269123
          ]
        ]
      }
    },
    {
      "type": "Feature",
      "properties": {
        "P12_001": 10057,
        "P12_002": "つり公園シモツピアーランド",
        "P12_003": "30",
        "P12_004": "30202",
        "P12_005": "‐",
        "P12_006": "海南市下津町丸田1204-20",
        "P12_007": 4
      },
      "geometry": {
        "type": "MultiPoint",
        "coordinates": [
          [
            135.1436494434671,
            34.13825897317315
          ]
        ]
      }
    },
    {
      "type": "Feature",
      "properties": {
        "P12_001": 10058,
        "P12_002": "藤白神社",
        "P12_003": "30",
        "P12_004": "30202",
        "P12_005": "‐",
        "P12_006": "海南市藤白466",
        "P12_007": 2
      },
      "geometry": {
        "type": "MultiPoint",
        "coordinates": [
          [
            135.20939645008616,
            34.144273665097614
          ]
        ]
      }
    },
    {
      "type": "Feature",
      "properties": {
        "P12_001": 10059,
        "P12_002": "長保寺",
        "P12_003": "30",
        "P12_004": "30202",
        "P12_005": "‐",
        "P12_006": "海南市下津町上689",
        "P12_007": 2
      },
      "geometry": {
        "type": "MultiPoint",
        "coordinates": [
          [
            135.16567722272566,
            34.10910361164241
          ]
        ]
      }
    },
    {
      "type": "Feature",
      "properties": {
        "P12_001": 10060,
        "P12_002": "紀州漆器伝統産業会館（うるわし館）",
        "P12_003": "30",
        "P12_004": "30202",
        "P12_005": "‐",
        "P12_006": "海南市船尾222",
        "P12_007": 2
      },
      "geometry": {
        "type": "MultiPoint",
        "coordinates": [
          [
            135.20372777861417,
            34.16089694423863
          ]
        ]
      }
    },
    {
      "type": "Feature",
      "properties": {
        "P12_001": 10061,
        "P12_002": "わんぱく公園",
        "P12_003": "30",
        "P12_004": "30202",
        "P12_005": "‐",
        "P12_006": "海南市大野中995-2",
        "P12_007": 4
      },
      "geometry": {
        "type": "MultiPoint",
        "coordinates": [
          [
            135.2329019998275,
            34.158090000053505
          ]
        ]
      }
    },
    {
      "type": "Feature",
      "properties": {
        "P12_001": 10062,
        "P12_002": "温山荘園",
        "P12_003": "30",
        "P12_004": "30202",
        "P12_005": "‐",
        "P12_006": "海南市船尾370",
        "P12_007": 2
      },
      "geometry": {
        "type": "MultiPoint",
        "coordinates": [
          [
            135.1947733333227,
            34.15804916633601
          ]
        ]
      }
    },
    {
      "type": "Feature",
      "properties": {
        "P12_001": 10063,
        "P12_002": "中野ＢＣ株式会社",
        "P12_003": "30",
        "P12_004": "30202",
        "P12_005": "‐",
        "P12_006": "海南市藤白758-45",
        "P12_007": 2
      },
      "geometry": {
        "type": "MultiPoint",
        "coordinates": [
          [
            135.206756110706,
            34.14739194468257
          ]
        ]
      }
    },
    {
      "type": "Feature",
      "properties": {
        "P12_001": 10064,
        "P12_002": "黒沢ハイランド（ゴルフ場あり）",
        "P12_003": "30",
        "P12_004": "30202",
        "P12_005": "‐",
        "P12_006": "海南市上谷603",
        "P12_007": 4
      },
      "geometry": {
        "type": "MultiPoint",
        "coordinates": [
          [
            135.29146918525475,
            34.12885186042507
          ]
        ]
      }
    },
    {
      "type": "Feature",
      "properties": {
        "P12_001": 10065,
        "P12_002": "下駄市",
        "P12_003": "30",
        "P12_004": "30202",
        "P12_005": "‐",
        "P12_006": "海南市",
        "P12_007": 1
      },
      "geometry": {
        "type": "MultiPoint",
        "coordinates": [
          [
            135.209223888172,
            34.15533777781627
          ]
        ]
      }
    },
    {
      "type": "Feature",
      "properties": {
        "P12_001": 10066,
        "P12_002": "ふるさと海南まつり",
        "P12_003": "30",
        "P12_004": "30202",
        "P12_005": "‐",
        "P12_006": "海南市",
        "P12_007": 1
      },
      "geometry": {
        "type": "MultiPoint",
        "coordinates": [
          [
            135.209223888172,
            34.15533777781627
          ]
        ]
      }
    },
    {
      "type": "Feature",
      "properties": {
        "P12_001": 10067,
        "P12_002": "漆器まつり",
        "P12_003": "30",
        "P12_004": "30202",
        "P12_005": "‐",
        "P12_006": "海南市",
        "P12_007": 1
      },
      "geometry": {
        "type": "MultiPoint",
        "coordinates": [
          [
            135.1947733333227,
            34.15804916633601
          ]
        ]
      }
    },
    {
      "type": "Feature",
      "properties": {
        "P12_001": 10068,
        "P12_002": "橋本カントリークラブ",
        "P12_003": "30",
        "P12_004": "30203",
        "P12_005": "‐",
        "P12_006": "橋本市隅田町下兵庫1123",
        "P12_007": 4
      },
      "geometry": {
        "type": "MultiPoint",
        "coordinates": [
          [
            135.62868333326924,
            34.345268332867306
          ]
        ]
      }
    },
    {
      "type": "Feature",
      "properties": {
        "P12_001": 10069,
        "P12_002": "ゆの里",
        "P12_003": "30",
        "P12_004": "30203",
        "P12_005": "‐",
        "P12_006": "橋本市神野々898",
        "P12_007": 3
      },
      "geometry": {
        "type": "MultiPoint",
        "coordinates": [
          [
            135.5791941671771,
            34.30553777774628
          ]
        ]
      }
    },
    {
      "type": "Feature",
      "properties": {
        "P12_001": 10070,
        "P12_002": "紀文まつり",
        "P12_003": "30",
        "P12_004": "30204",
        "P12_005": "‐",
        "P12_006": "有田市",
        "P12_007": 1
      },
      "geometry": {
        "type": "MultiPoint",
        "coordinates": [
          [
            135.12767194410503,
            34.083064445068146
          ]
        ]
      }
    },
    {
      "type": "Feature",
      "properties": {
        "P12_001": 10071,
        "P12_002": "有田川ふるさとまつり",
        "P12_003": "30",
        "P12_004": "30204",
        "P12_005": "‐",
        "P12_006": "有田市",
        "P12_007": 1
      },
      "geometry": {
        "type": "MultiPoint",
        "coordinates": [
          [
            135.12767194410503,
            34.083064445068146
          ]
        ]
      }
    },
    {
      "type": "Feature",
      "properties": {
        "P12_001": 10072,
        "P12_002": "うまいもんまつり",
        "P12_003": "30",
        "P12_004": "30204",
        "P12_005": "‐",
        "P12_006": "有田市",
        "P12_007": 1
      },
      "geometry": {
        "type": "MultiPoint",
        "coordinates": [
          [
            135.12767194410503,
            34.083064445068146
          ]
        ]
      }
    },
    {
      "type": "Feature",
      "properties": {
        "P12_001": 10073,
        "P12_002": "日高港新エネルギーパーク",
        "P12_003": "30",
        "P12_004": "30205",
        "P12_005": "‐",
        "P12_006": "御坊市塩屋町南塩屋450-10",
        "P12_007": 4
      },
      "geometry": {
        "type": "MultiPoint",
        "coordinates": [
          [
            135.1598677776759,
            33.86625416669648
          ]
        ]
      }
    },
    {
      "type": "Feature",
      "properties": {
        "P12_001": 10074,
        "P12_002": "御坊市花火大会",
        "P12_003": "30",
        "P12_004": "30205",
        "P12_005": "‐",
        "P12_006": "御坊市",
        "P12_007": 1
      },
      "geometry": {
        "type": "MultiPoint",
        "coordinates": [
          [
            135.1660049995312,
            33.886651000243546
          ]
        ]
      }
    },
    {
      "type": "Feature",
      "properties": {
        "P12_001": 10075,
        "P12_002": "宮子姫みなとフェスタ",
        "P12_003": "30",
        "P12_004": "30205",
        "P12_005": "‐",
        "P12_006": "御坊市",
        "P12_007": 1
      },
      "geometry": {
        "type": "MultiPoint",
        "coordinates": [
          [
            135.1589669996274,
            33.86694399976585
          ]
        ]
      }
    },
    {
      "type": "Feature",
      "properties": {
        "P12_001": 10076,
        "P12_002": "いこらＤＥフェスティバル",
        "P12_003": "30",
        "P12_004": "30205",
        "P12_005": "‐",
        "P12_006": "御坊市",
        "P12_007": 1
      },
      "geometry": {
        "type": "MultiPoint",
        "coordinates": [
          [
            135.17614599953833,
            33.89999000023835
          ]
        ]
      }
    },
    {
      "type": "Feature",
      "properties": {
        "P12_001": 10077,
        "P12_002": "御坊祭",
        "P12_003": "30",
        "P12_004": "30205",
        "P12_005": "‐",
        "P12_006": "御坊市",
        "P12_007": 1
      },
      "geometry": {
        "type": "MultiPoint",
        "coordinates": [
          [
            135.15373200013175,
            33.88528799944169
          ]
        ]
      }
    },
    {
      "type": "Feature",
      "properties": {
        "P12_001": 10078,
        "P12_002": "ラ・フェスタ・プリマぺラｉｎ日高港",
        "P12_003": "30",
        "P12_004": "30205",
        "P12_005": "‐",
        "P12_006": "御坊市",
        "P12_007": 1
      },
      "geometry": {
        "type": "MultiPoint",
        "coordinates": [
          [
            135.15236333270173,
            33.89148638868596
          ]
        ]
      }
    },
    {
      "type": "Feature",
      "properties": {
        "P12_001": 10079,
        "P12_002": "きのくにロボットフェスティバル",
        "P12_003": "30",
        "P12_004": "30205",
        "P12_005": "‐",
        "P12_006": "御坊市",
        "P12_007": 1
      },
      "geometry": {
        "type": "MultiPoint",
        "coordinates": [
          [
            135.15236333270173,
            33.89148638868596
          ]
        ]
      }
    },
    {
      "type": "Feature",
      "properties": {
        "P12_001": 10080,
        "P12_002": "Ｓｉｏトープ子どもまつり",
        "P12_003": "30",
        "P12_004": "30205",
        "P12_005": "‐",
        "P12_006": "御坊市",
        "P12_007": 1
      },
      "geometry": {
        "type": "MultiPoint",
        "coordinates": [
          [
            135.15236333270173,
            33.89148638868596
          ]
        ]
      }
    },
    {
      "type": "Feature",
      "properties": {
        "P12_001": 10081,
        "P12_002": "熊野本宮大社",
        "P12_003": "30",
        "P12_004": "30206",
        "P12_005": "神社・寺院・教会",
        "P12_006": "田辺市本宮町本宮1100",
        "P12_007": 2
      },
      "geometry": {
        "type": "MultiPoint",
        "coordinates": [
          [
            135.77361899961716,
            33.84047999975223
          ]
        ]
      }
    },
    {
      "type": "Feature",
      "properties": {
        "P12_001": 10082,
        "P12_002": "湯の峰温泉のつぼ湯と湯筒",
        "P12_003": "30",
        "P12_004": "30206",
        "P12_005": "温泉",
        "P12_006": "田辺市",
        "P12_007": -1
      },
      "geometry": {
        "type": "MultiPoint",
        "coordinates": [
          [
            135.7543050001757,
            33.8240519994003
          ]
        ]
      }
    },
    {
      "type": "Feature",
      "properties": {
        "P12_001": 10083,
        "P12_002": "世界遺産熊野本宮館",
        "P12_003": "30",
        "P12_004": "30206",
        "P12_005": "‐",
        "P12_006": "田辺市本宮町本宮100-1",
        "P12_007": 2
      },
      "geometry": {
        "type": "MultiPoint",
        "coordinates": [
          [
            135.77567637236677,
            33.83842347866067
          ]
        ]
      }
    },
    {
      "type": "Feature",
      "properties": {
        "P12_001": 10084,
        "P12_002": "紀州備長炭記念公園",
        "P12_003": "30",
        "P12_004": "30206",
        "P12_005": "‐",
        "P12_006": "田辺市秋津川1491-1",
        "P12_007": 4
      },
      "geometry": {
        "type": "MultiPoint",
        "coordinates": [
          [
            135.42717078820135,
            33.80334025744696
          ]
        ]
      }
    },
    {
      "type": "Feature",
      "properties": {
        "P12_001": 10085,
        "P12_002": "田辺扇ヶ浜海水浴場イベント",
        "P12_003": "30",
        "P12_004": "30206",
        "P12_005": "‐",
        "P12_006": "田辺市扇ヶ浜",
        "P12_007": 1
      },
      "geometry": {
        "type": "MultiPoint",
        "coordinates": [
          [
            135.37781972200264,
            33.72485666710156
          ]
        ]
      }
    },
    {
      "type": "Feature",
      "properties": {
        "P12_001": 10086,
        "P12_002": "扇ヶ浜海水浴場",
        "P12_003": "30",
        "P12_004": "30206",
        "P12_005": "‐",
        "P12_006": "田辺市扇ヶ浜",
        "P12_007": 4
      },
      "geometry": {
        "type": "MultiPoint",
        "coordinates": [
          [
            135.37781972200264,
            33.72485666710156
          ]
        ]
      }
    },
    {
      "type": "Feature",
      "properties": {
        "P12_001": 10087,
        "P12_002": "田辺花火大会",
        "P12_003": "30",
        "P12_004": "30206",
        "P12_005": "‐",
        "P12_006": "田辺市",
        "P12_007": 1
      },
      "geometry": {
        "type": "MultiPoint",
        "coordinates": [
          [
            135.3743320000218,
            33.72664900065092
          ]
        ]
      }
    },
    {
      "type": "Feature",
      "properties": {
        "P12_001": 10088,
        "P12_002": "弁慶まつり",
        "P12_003": "30",
        "P12_004": "30206",
        "P12_005": "‐",
        "P12_006": "田辺市",
        "P12_007": 1
      },
      "geometry": {
        "type": "MultiPoint",
        "coordinates": [
          [
            135.3777508330346,
            33.7280197221325
          ]
        ]
      }
    },
    {
      "type": "Feature",
      "properties": {
        "P12_001": 10089,
        "P12_002": "闘鶏神社",
        "P12_003": "30",
        "P12_004": "30206",
        "P12_005": "‐",
        "P12_006": "田辺市湊655",
        "P12_007": 2
      },
      "geometry": {
        "type": "MultiPoint",
        "coordinates": [
          [
            135.38390599996194,
            33.72948599927952
          ]
        ]
      }
    },
    {
      "type": "Feature",
      "properties": {
        "P12_001": 10090,
        "P12_002": "高山寺",
        "P12_003": "30",
        "P12_004": "30206",
        "P12_005": "‐",
        "P12_006": "田辺市稲成町392",
        "P12_007": 2
      },
      "geometry": {
        "type": "MultiPoint",
        "coordinates": [
          [
            135.3789927778945,
            33.74046083360065
          ]
        ]
      }
    },
    {
      "type": "Feature",
      "properties": {
        "P12_001": 10091,
        "P12_002": "扇ヶ浜",
        "P12_003": "30",
        "P12_004": "30206",
        "P12_005": "‐",
        "P12_006": "田辺市扇ヶ浜",
        "P12_007": 1
      },
      "geometry": {
        "type": "MultiPoint",
        "coordinates": [
          [
            135.37781972200264,
            33.72485666710156
          ]
        ]
      }
    },
    {
      "type": "Feature",
      "properties": {
        "P12_001": 10092,
        "P12_002": "天神崎",
        "P12_003": "30",
        "P12_004": "30206",
        "P12_005": "‐",
        "P12_006": "田辺市天神崎5-17",
        "P12_007": 1
      },
      "geometry": {
        "type": "MultiPoint",
        "coordinates": [
          [
            135.35321738787218,
            33.72560112768997
          ]
        ]
      }
    },
    {
      "type": "Feature",
      "properties": {
        "P12_001": 10093,
        "P12_002": "奇絶峡",
        "P12_003": "30",
        "P12_004": "30206",
        "P12_005": "‐",
        "P12_006": "田辺市上秋津",
        "P12_007": 1
      },
      "geometry": {
        "type": "MultiPoint",
        "coordinates": [
          [
            135.41255851006724,
            33.781958949545924
          ]
        ]
      }
    },
    {
      "type": "Feature",
      "properties": {
        "P12_001": 10094,
        "P12_002": "ふるさと自然公園センター",
        "P12_003": "30",
        "P12_004": "30206",
        "P12_005": "‐",
        "P12_006": "田辺市稲成町1629",
        "P12_007": 4
      },
      "geometry": {
        "type": "MultiPoint",
        "coordinates": [
          [
            135.3864540005518,
            33.76020399941507
          ]
        ]
      }
    },
    {
      "type": "Feature",
      "properties": {
        "P12_001": 10095,
        "P12_002": "新庄総合公園",
        "P12_003": "30",
        "P12_004": "30206",
        "P12_005": "‐",
        "P12_006": "田辺市たきない町3558-1",
        "P12_007": 4
      },
      "geometry": {
        "type": "MultiPoint",
        "coordinates": [
          [
            135.39833832375473,
            33.69560324169629
          ]
        ]
      }
    },
    {
      "type": "Feature",
      "properties": {
        "P12_001": 10096,
        "P12_002": "農林水産業祭",
        "P12_003": "30",
        "P12_004": "30206",
        "P12_005": "‐",
        "P12_006": "田辺市",
        "P12_007": 1
      },
      "geometry": {
        "type": "MultiPoint",
        "coordinates": [
          [
            135.3777508330346,
            33.7280197221325
          ]
        ]
      }
    },
    {
      "type": "Feature",
      "properties": {
        "P12_001": 10097,
        "P12_002": "田辺祭",
        "P12_003": "30",
        "P12_004": "30206",
        "P12_005": "‐",
        "P12_006": "田辺市",
        "P12_007": 1
      },
      "geometry": {
        "type": "MultiPoint",
        "coordinates": [
          [
            135.38390599996194,
            33.72948599927952
          ]
        ]
      }
    },
    {
      "type": "Feature",
      "properties": {
        "P12_001": 10098,
        "P12_002": "ヤーヤー祭",
        "P12_003": "30",
        "P12_004": "30206",
        "P12_005": "‐",
        "P12_006": "田辺市",
        "P12_007": 1
      },
      "geometry": {
        "type": "MultiPoint",
        "coordinates": [
          [
            135.3777508330346,
            33.7280197221325
          ]
        ]
      }
    },
    {
      "type": "Feature",
      "properties": {
        "P12_001": 10099,
        "P12_002": "紀州田辺梅林",
        "P12_003": "30",
        "P12_004": "30206",
        "P12_005": "‐",
        "P12_006": "田辺市上芳養石神",
        "P12_007": 1
      },
      "geometry": {
        "type": "MultiPoint",
        "coordinates": [
          [
            135.40525599976468,
            33.8237810003929
          ]
        ]
      }
    },
    {
      "type": "Feature",
      "properties": {
        "P12_001": 10100,
        "P12_002": "白浜ビーチゴルフクラブ",
        "P12_003": "30",
        "P12_004": "30206",
        "P12_005": "‐",
        "P12_006": "田辺市新庄町3724-1",
        "P12_007": 4
      },
      "geometry": {
        "type": "MultiPoint",
        "coordinates": [
          [
            135.38576916591433,
            33.69013666677381
          ]
        ]
      }
    },
    {
      "type": "Feature",
      "properties": {
        "P12_001": 10101,
        "P12_002": "南方熊楠顕彰館",
        "P12_003": "30",
        "P12_004": "30206",
        "P12_005": "‐",
        "P12_006": "田辺市中屋敷町36",
        "P12_007": 2
      },
      "geometry": {
        "type": "MultiPoint",
        "coordinates": [
          [
            135.3778066368668,
            33.731097345166404
          ]
        ]
      }
    },
    {
      "type": "Feature",
      "properties": {
        "P12_001": 10102,
        "P12_002": "龍神温泉",
        "P12_003": "30",
        "P12_004": "30206",
        "P12_005": "‐",
        "P12_006": "田辺市龍神村",
        "P12_007": 3
      },
      "geometry": {
        "type": "MultiPoint",
        "coordinates": [
          [
            135.56140699983325,
            33.95592800057682
          ]
        ]
      }
    },
    {
      "type": "Feature",
      "properties": {
        "P12_001": 10103,
        "P12_002": "ごまさんスカイタワー",
        "P12_003": "30",
        "P12_004": "30206",
        "P12_005": "‐",
        "P12_006": "田辺市龍神村龍神1020-6",
        "P12_007": 6
      },
      "geometry": {
        "type": "MultiPoint",
        "coordinates": [
          [
            135.5643689997296,
            34.06131999991811
          ]
        ]
      }
    },
    {
      "type": "Feature",
      "properties": {
        "P12_001": 10104,
        "P12_002": "翔龍祭",
        "P12_003": "30",
        "P12_004": "30206",
        "P12_005": "‐",
        "P12_006": "田辺市龍神村",
        "P12_007": 1
      },
      "geometry": {
        "type": "MultiPoint",
        "coordinates": [
          [
            135.47504600037269,
            33.891322000709806
          ]
        ]
      }
    },
    {
      "type": "Feature",
      "properties": {
        "P12_001": 10105,
        "P12_002": "熊野古道清姫まつり",
        "P12_003": "30",
        "P12_004": "30206",
        "P12_005": "‐",
        "P12_006": "田辺市中辺路町",
        "P12_007": 1
      },
      "geometry": {
        "type": "MultiPoint",
        "coordinates": [
          [
            135.49991699976977,
            33.76120699980328
          ]
        ]
      }
    },
    {
      "type": "Feature",
      "properties": {
        "P12_001": 10106,
        "P12_002": "熊野古道ウォーク（中辺路町のみ）",
        "P12_003": "30",
        "P12_004": "30206",
        "P12_005": "‐",
        "P12_006": "田辺市中辺路町",
        "P12_007": 4
      },
      "geometry": {
        "type": "MultiPoint",
        "coordinates": [
          [
            135.3777508330346,
            33.7280197221325
          ]
        ]
      }
    },
    {
      "type": "Feature",
      "properties": {
        "P12_001": 10107,
        "P12_002": "ふるさとセンター大塔",
        "P12_003": "30",
        "P12_004": "30206",
        "P12_005": "‐",
        "P12_006": "田辺市鮎川1000",
        "P12_007": 6
      },
      "geometry": {
        "type": "MultiPoint",
        "coordinates": [
          [
            135.5018539991628,
            33.74278900031214
          ]
        ]
      }
    },
    {
      "type": "Feature",
      "properties": {
        "P12_001": 10108,
        "P12_002": "乙女の湯",
        "P12_003": "30",
        "P12_004": "30206",
        "P12_005": "‐",
        "P12_006": "田辺市下川下982",
        "P12_007": 3
      },
      "geometry": {
        "type": "MultiPoint",
        "coordinates": [
          [
            135.5847779993053,
            33.74227499999131
          ]
        ]
      }
    },
    {
      "type": "Feature",
      "properties": {
        "P12_001": 10109,
        "P12_002": "地球元気村ＩＮ和歌山大塔",
        "P12_003": "30",
        "P12_004": "30206",
        "P12_005": "‐",
        "P12_006": "田辺市",
        "P12_007": 1
      },
      "geometry": {
        "type": "MultiPoint",
        "coordinates": [
          [
            135.48603399986928,
            33.72806100011513
          ]
        ]
      }
    },
    {
      "type": "Feature",
      "properties": {
        "P12_001": 10110,
        "P12_002": "本宮温泉郷",
        "P12_003": "30",
        "P12_004": "30206",
        "P12_005": "‐",
        "P12_006": "田辺市本宮町",
        "P12_007": 3
      },
      "geometry": {
        "type": "MultiPoint",
        "coordinates": [
          [
            135.77308600021877,
            33.83808000059162
          ]
        ]
      }
    },
    {
      "type": "Feature",
      "properties": {
        "P12_001": 10111,
        "P12_002": "熊野古道ウォーク（本宮で語り部依頼のみ）",
        "P12_003": "30",
        "P12_004": "30206",
        "P12_005": "‐",
        "P12_006": "田辺市本宮町伏拝904-4",
        "P12_007": 4
      },
      "geometry": {
        "type": "MultiPoint",
        "coordinates": [
          [
            135.7621777903728,
            33.86503458887523
          ]
        ]
      }
    },
    {
      "type": "Feature",
      "properties": {
        "P12_001": 10112,
        "P12_002": "奥熊野ほんぐう",
        "P12_003": "30",
        "P12_004": "30206",
        "P12_005": "‐",
        "P12_006": "田辺市本宮町伏拝904-4",
        "P12_007": 6
      },
      "geometry": {
        "type": "MultiPoint",
        "coordinates": [
          [
            135.7621777903728,
            33.86503458887523
          ]
        ]
      }
    },
    {
      "type": "Feature",
      "properties": {
        "P12_001": 10113,
        "P12_002": "熊野速玉大社",
        "P12_003": "30",
        "P12_004": "30207",
        "P12_005": "神社・寺院・教会",
        "P12_006": "新宮市新宮1",
        "P12_007": 2
      },
      "geometry": {
        "type": "MultiPoint",
        "coordinates": [
          [
            135.98355659955746,
            33.73217817468304
          ]
        ]
      }
    },
    {
      "type": "Feature",
      "properties": {
        "P12_001": 10114,
        "P12_002": "瀞峡",
        "P12_003": "30",
        "P12_004": "30207",
        "P12_005": "河川・峡谷",
        "P12_006": "新宮市",
        "P12_007": -1
      },
      "geometry": {
        "type": "MultiPoint",
        "coordinates": [
          [
            135.85880690001852,
            33.81522918967539
          ]
        ]
      }
    },
    {
      "type": "Feature",
      "properties": {
        "P12_001": 10115,
        "P12_002": "浮島の森",
        "P12_003": "30",
        "P12_004": "30207",
        "P12_005": "‐",
        "P12_006": "新宮市浮島3-38",
        "P12_007": 1
      },
      "geometry": {
        "type": "MultiPoint",
        "coordinates": [
          [
            135.99026599977617,
            33.72562400014755
          ]
        ]
      }
    },
    {
      "type": "Feature",
      "properties": {
        "P12_001": 10116,
        "P12_002": "熊野徐福万燈祭",
        "P12_003": "30",
        "P12_004": "30207",
        "P12_005": "‐",
        "P12_006": "新宮市新宮1先",
        "P12_007": 1
      },
      "geometry": {
        "type": "MultiPoint",
        "coordinates": [
          [
            135.98355659955746,
            33.73217817468304
          ]
        ]
      }
    },
    {
      "type": "Feature",
      "properties": {
        "P12_001": 10117,
        "P12_002": "瀞峡ジェット船",
        "P12_003": "30",
        "P12_004": "30207",
        "P12_005": "‐",
        "P12_006": "新宮市志古",
        "P12_007": 4
      },
      "geometry": {
        "type": "MultiPoint",
        "coordinates": [
          [
            135.8580550002381,
            33.814565999921
          ]
        ]
      }
    },
    {
      "type": "Feature",
      "properties": {
        "P12_001": 10118,
        "P12_002": "徐福公園",
        "P12_003": "30",
        "P12_004": "30207",
        "P12_005": "‐",
        "P12_006": "新宮市徐福1-4-24",
        "P12_007": 4
      },
      "geometry": {
        "type": "MultiPoint",
        "coordinates": [
          [
            135.99550472246506,
            33.725901944619125
          ]
        ]
      }
    },
    {
      "type": "Feature",
      "properties": {
        "P12_001": 10119,
        "P12_002": "神通温泉",
        "P12_003": "30",
        "P12_004": "30208",
        "P12_005": "‐",
        "P12_006": "紀の川市神通191-6",
        "P12_007": 3
      },
      "geometry": {
        "type": "MultiPoint",
        "coordinates": [
          [
            135.37674499978198,
            34.32259000022839
          ]
        ]
      }
    },
    {
      "type": "Feature",
      "properties": {
        "P12_001": 10120,
        "P12_002": "龍門山温泉",
        "P12_003": "30",
        "P12_004": "30208",
        "P12_005": "‐",
        "P12_006": "紀の川市荒見645-1",
        "P12_007": 3
      },
      "geometry": {
        "type": "MultiPoint",
        "coordinates": [
          [
            135.4089590005575,
            34.262105999792084
          ]
        ]
      }
    },
    {
      "type": "Feature",
      "properties": {
        "P12_001": 10121,
        "P12_002": "粉河寺",
        "P12_003": "30",
        "P12_004": "30208",
        "P12_005": "‐",
        "P12_006": "紀の川市粉河2787",
        "P12_007": 2
      },
      "geometry": {
        "type": "MultiPoint",
        "coordinates": [
          [
            135.40595421001888,
            34.280905380179206
          ]
        ]
      }
    },
    {
      "type": "Feature",
      "properties": {
        "P12_001": 10122,
        "P12_002": "ハイランドパーク粉河",
        "P12_003": "30",
        "P12_004": "30208",
        "P12_005": "‐",
        "P12_006": "紀の川市中津川地内",
        "P12_007": 4
      },
      "geometry": {
        "type": "MultiPoint",
        "coordinates": [
          [
            135.41048599992905,
            34.341644000270435
          ]
        ]
      }
    },
    {
      "type": "Feature",
      "properties": {
        "P12_001": 10123,
        "P12_002": "長田観音",
        "P12_003": "30",
        "P12_004": "30208",
        "P12_005": "‐",
        "P12_006": "紀の川市別所58",
        "P12_007": 2
      },
      "geometry": {
        "type": "MultiPoint",
        "coordinates": [
          [
            135.39027199945326,
            34.27066199955169
          ]
        ]
      }
    },
    {
      "type": "Feature",
      "properties": {
        "P12_001": 10124,
        "P12_002": "粉河祭",
        "P12_003": "30",
        "P12_004": "30208",
        "P12_005": "‐",
        "P12_006": "紀の川市",
        "P12_007": 1
      },
      "geometry": {
        "type": "MultiPoint",
        "coordinates": [
          [
            135.36272666720197,
            34.26984194465007
          ]
        ]
      }
    },
    {
      "type": "Feature",
      "properties": {
        "P12_001": 10125,
        "P12_002": "青洲の里",
        "P12_003": "30",
        "P12_004": "30208",
        "P12_005": "‐",
        "P12_006": "紀の川市西野山473",
        "P12_007": 6
      },
      "geometry": {
        "type": "MultiPoint",
        "coordinates": [
          [
            135.44164105349194,
            34.280814056723386
          ]
        ]
      }
    },
    {
      "type": "Feature",
      "properties": {
        "P12_001": 10126,
        "P12_002": "ファーマーズマート　ふうの丘",
        "P12_003": "30",
        "P12_004": "30208",
        "P12_005": "‐",
        "P12_006": "紀の川市平野927",
        "P12_007": 5
      },
      "geometry": {
        "type": "MultiPoint",
        "coordinates": [
          [
            135.4516600002089,
            34.30054500075124
          ]
        ]
      }
    },
    {
      "type": "Feature",
      "properties": {
        "P12_001": 10127,
        "P12_002": "紀の国カントリー倶楽部",
        "P12_003": "30",
        "P12_004": "30208",
        "P12_005": "‐",
        "P12_006": "紀の市桃山町調月2506",
        "P12_007": 4
      },
      "geometry": {
        "type": "MultiPoint",
        "coordinates": [
          [
            135.34685400001217,
            34.20073200058141
          ]
        ]
      }
    },
    {
      "type": "Feature",
      "properties": {
        "P12_001": 10128,
        "P12_002": "紀泉カントリー倶楽部",
        "P12_003": "30",
        "P12_004": "30208",
        "P12_005": "‐",
        "P12_006": "紀の川市上勝神411-34",
        "P12_007": 4
      },
      "geometry": {
        "type": "MultiPoint",
        "coordinates": [
          [
            135.39438000003702,
            34.237705999632226
          ]
        ]
      }
    },
    {
      "type": "Feature",
      "properties": {
        "P12_001": 10129,
        "P12_002": "那賀スポーツ・レクリエーションセンター",
        "P12_003": "30",
        "P12_004": "30208",
        "P12_005": "‐",
        "P12_006": "紀の川市桃山町調月5",
        "P12_007": 4
      },
      "geometry": {
        "type": "MultiPoint",
        "coordinates": [
          [
            135.33108390949485,
            34.243128622887696
          ]
        ]
      }
    },
    {
      "type": "Feature",
      "properties": {
        "P12_001": 10130,
        "P12_002": "紀の川市桃山まつり",
        "P12_003": "30",
        "P12_004": "30208",
        "P12_005": "‐",
        "P12_006": "紀の川市桃山町",
        "P12_007": 1
      },
      "geometry": {
        "type": "MultiPoint",
        "coordinates": [
          [
            135.36272666720197,
            34.26984194465007
          ]
        ]
      }
    },
    {
      "type": "Feature",
      "properties": {
        "P12_001": 10131,
        "P12_002": "貴志川観光物産センター",
        "P12_003": "30",
        "P12_004": "30208",
        "P12_005": "‐",
        "P12_006": "紀の川市貴志川町前田135-1",
        "P12_007": 5
      },
      "geometry": {
        "type": "MultiPoint",
        "coordinates": [
          [
            135.31434750013705,
            34.21853916704896
          ]
        ]
      }
    },
    {
      "type": "Feature",
      "properties": {
        "P12_001": 10132,
        "P12_002": "いちご狩り",
        "P12_003": "30",
        "P12_004": "30208",
        "P12_005": "‐",
        "P12_006": "紀の川市貴志川町",
        "P12_007": 4
      },
      "geometry": {
        "type": "MultiPoint",
        "coordinates": [
          [
            135.36272666720197,
            34.26984194465007
          ]
        ]
      }
    },
    {
      "type": "Feature",
      "properties": {
        "P12_001": 10133,
        "P12_002": "根来寺",
        "P12_003": "30",
        "P12_004": "30209",
        "P12_005": "‐",
        "P12_006": "岩出市根来2286",
        "P12_007": 2
      },
      "geometry": {
        "type": "MultiPoint",
        "coordinates": [
          [
            135.31664047008167,
            34.287167640174516
          ]
        ]
      }
    },
    {
      "type": "Feature",
      "properties": {
        "P12_001": 10134,
        "P12_002": "緑花センター",
        "P12_003": "30",
        "P12_004": "30209",
        "P12_005": "‐",
        "P12_006": "岩出市東坂本672",
        "P12_007": 2
      },
      "geometry": {
        "type": "MultiPoint",
        "coordinates": [
          [
            135.32716920739313,
            34.28605540723129
          ]
        ]
      }
    },
    {
      "type": "Feature",
      "properties": {
        "P12_001": 10135,
        "P12_002": "根来山げんきの森",
        "P12_003": "30",
        "P12_004": "30209",
        "P12_005": "‐",
        "P12_006": "岩出市根来根来山",
        "P12_007": 4
      },
      "geometry": {
        "type": "MultiPoint",
        "coordinates": [
          [
            135.32940900042513,
            34.29405299994602
          ]
        ]
      }
    },
    {
      "type": "Feature",
      "properties": {
        "P12_001": 10136,
        "P12_002": "紀州根来寺かくばん祭り",
        "P12_003": "30",
        "P12_004": "30209",
        "P12_005": "‐",
        "P12_006": "岩出市根来2286",
        "P12_007": 1
      },
      "geometry": {
        "type": "MultiPoint",
        "coordinates": [
          [
            135.31664047008167,
            34.287167640174516
          ]
        ]
      }
    },
    {
      "type": "Feature",
      "properties": {
        "P12_001": 10137,
        "P12_002": "いわで夏祭り",
        "P12_003": "30",
        "P12_004": "30209",
        "P12_005": "‐",
        "P12_006": "岩出市西野417",
        "P12_007": 1
      },
      "geometry": {
        "type": "MultiPoint",
        "coordinates": [
          [
            135.3064058335624,
            34.25513638883331
          ]
        ]
      }
    },
    {
      "type": "Feature",
      "properties": {
        "P12_001": 10138,
        "P12_002": "生石高原県立自然公園",
        "P12_003": "30",
        "P12_004": "30304",
        "P12_005": "‐",
        "P12_006": "紀美野町",
        "P12_007": 1
      },
      "geometry": {
        "type": "MultiPoint",
        "coordinates": [
          [
            135.3276999998552,
            34.106202999468906
          ]
        ]
      }
    },
    {
      "type": "Feature",
      "properties": {
        "P12_001": 10139,
        "P12_002": "のかみふれあい公園（ゴルフ、キャンプ場）",
        "P12_003": "30",
        "P12_004": "30304",
        "P12_005": "‐",
        "P12_006": "紀美野町西野971",
        "P12_007": 4
      },
      "geometry": {
        "type": "MultiPoint",
        "coordinates": [
          [
            135.34928888927084,
            34.17953055529097
          ]
        ]
      }
    },
    {
      "type": "Feature",
      "properties": {
        "P12_001": 10140,
        "P12_002": "国木原ゴルフ倶楽部",
        "P12_003": "30",
        "P12_004": "30304",
        "P12_005": "‐",
        "P12_006": "紀美野町国木原551-14",
        "P12_007": 4
      },
      "geometry": {
        "type": "MultiPoint",
        "coordinates": [
          [
            135.34317305599177,
            34.191237499810825
          ]
        ]
      }
    },
    {
      "type": "Feature",
      "properties": {
        "P12_001": 10141,
        "P12_002": "たまゆらの里",
        "P12_003": "30",
        "P12_004": "30304",
        "P12_005": "‐",
        "P12_006": "紀美野町長谷宮705",
        "P12_007": 4
      },
      "geometry": {
        "type": "MultiPoint",
        "coordinates": [
          [
            135.49028166696542,
            34.18728833299025
          ]
        ]
      }
    },
    {
      "type": "Feature",
      "properties": {
        "P12_001": 10142,
        "P12_002": "みさと天文台",
        "P12_003": "30",
        "P12_004": "30304",
        "P12_005": "‐",
        "P12_006": "紀美野町松ヶ峯180",
        "P12_007": 1
      },
      "geometry": {
        "type": "MultiPoint",
        "coordinates": [
          [
            135.40614700038384,
            34.144541000267
          ]
        ]
      }
    },
    {
      "type": "Feature",
      "properties": {
        "P12_001": 10143,
        "P12_002": "サンリゾートＣＣ",
        "P12_003": "30",
        "P12_004": "30304",
        "P12_005": "‐",
        "P12_006": "紀美野町安井297",
        "P12_007": 4
      },
      "geometry": {
        "type": "MultiPoint",
        "coordinates": [
          [
            135.34104338764234,
            34.148162539569626
          ]
        ]
      }
    },
    {
      "type": "Feature",
      "properties": {
        "P12_001": 10144,
        "P12_002": "かじか荘",
        "P12_003": "30",
        "P12_004": "30304",
        "P12_005": "‐",
        "P12_006": "紀美野町菅沢6",
        "P12_007": 3
      },
      "geometry": {
        "type": "MultiPoint",
        "coordinates": [
          [
            135.41006599944637,
            34.13964199917899
          ]
        ]
      }
    },
    {
      "type": "Feature",
      "properties": {
        "P12_001": 10145,
        "P12_002": "だるま湯",
        "P12_003": "30",
        "P12_004": "30304",
        "P12_005": "‐",
        "P12_006": "紀美野町滝ノ川73",
        "P12_007": 3
      },
      "geometry": {
        "type": "MultiPoint",
        "coordinates": [
          [
            135.4287944449078,
            34.13551416674545
          ]
        ]
      }
    },
    {
      "type": "Feature",
      "properties": {
        "P12_001": 10146,
        "P12_002": "かつらぎ公園",
        "P12_003": "30",
        "P12_004": "30341",
        "P12_005": "‐",
        "P12_006": "かつらぎ町大字丁ノ町2530-10",
        "P12_007": 1
      },
      "geometry": {
        "type": "MultiPoint",
        "coordinates": [
          [
            135.51643493142706,
            34.29560301206942
          ]
        ]
      }
    },
    {
      "type": "Feature",
      "properties": {
        "P12_001": 10147,
        "P12_002": "丹生都比売神社",
        "P12_003": "30",
        "P12_004": "30341",
        "P12_005": "‐",
        "P12_006": "かつらぎ町上天野230",
        "P12_007": 2
      },
      "geometry": {
        "type": "MultiPoint",
        "coordinates": [
          [
            135.52188468363136,
            34.262831283237176
          ]
        ]
      }
    },
    {
      "type": "Feature",
      "properties": {
        "P12_001": 10148,
        "P12_002": "紀伊高原ゴルフクラブ",
        "P12_003": "30",
        "P12_004": "30341",
        "P12_005": "‐",
        "P12_006": "かつらぎ町神田166-6",
        "P12_007": 4
      },
      "geometry": {
        "type": "MultiPoint",
        "coordinates": [
          [
            135.5244624994449,
            34.24175833397999
          ]
        ]
      }
    },
    {
      "type": "Feature",
      "properties": {
        "P12_001": 10149,
        "P12_002": "紀北青少年の家",
        "P12_003": "30",
        "P12_004": "30341",
        "P12_005": "‐",
        "P12_006": "かつらぎ町中飯降1317-3",
        "P12_007": 4
      },
      "geometry": {
        "type": "MultiPoint",
        "coordinates": [
          [
            135.53539407547623,
            34.314241098148216
          ]
        ]
      }
    },
    {
      "type": "Feature",
      "properties": {
        "P12_001": 10150,
        "P12_002": "フルーツ狩り",
        "P12_003": "30",
        "P12_004": "30341",
        "P12_005": "‐",
        "P12_006": "かつらぎ町",
        "P12_007": 4
      },
      "geometry": {
        "type": "MultiPoint",
        "coordinates": [
          [
            135.5040522228319,
            34.29635722220809
          ]
        ]
      }
    },
    {
      "type": "Feature",
      "properties": {
        "P12_001": 10151,
        "P12_002": "野半の里",
        "P12_003": "30",
        "P12_004": "30341",
        "P12_005": "‐",
        "P12_006": "かつらぎ町佐野702",
        "P12_007": 3
      },
      "geometry": {
        "type": "MultiPoint",
        "coordinates": [
          [
            135.4846356143422,
            34.292829538852175
          ]
        ]
      }
    },
    {
      "type": "Feature",
      "properties": {
        "P12_001": 10152,
        "P12_002": "農産物直売所",
        "P12_003": "30",
        "P12_004": "30341",
        "P12_005": "‐",
        "P12_006": "かつらぎ町大字窪487-2",
        "P12_007": 5
      },
      "geometry": {
        "type": "MultiPoint",
        "coordinates": [
          [
            135.46453099930625,
            34.28451000053616
          ]
        ]
      }
    },
    {
      "type": "Feature",
      "properties": {
        "P12_001": 10153,
        "P12_002": "小原洞窟恐竜ランド",
        "P12_003": "30",
        "P12_004": "30341",
        "P12_005": "‐",
        "P12_006": "かつらぎ町花園梁瀬1020",
        "P12_007": 4
      },
      "geometry": {
        "type": "MultiPoint",
        "coordinates": [
          [
            135.51815200071428,
            34.16195300013089
          ]
        ]
      }
    },
    {
      "type": "Feature",
      "properties": {
        "P12_001": 10154,
        "P12_002": "真田まつり",
        "P12_003": "30",
        "P12_004": "30343",
        "P12_005": "‐",
        "P12_006": "九度山町",
        "P12_007": 1
      },
      "geometry": {
        "type": "MultiPoint",
        "coordinates": [
          [
            135.56220805565727,
            34.28725250020278
          ]
        ]
      }
    },
    {
      "type": "Feature",
      "properties": {
        "P12_001": 10155,
        "P12_002": "慈尊院",
        "P12_003": "30",
        "P12_004": "30343",
        "P12_005": "‐",
        "P12_006": "九度山町慈尊院832",
        "P12_007": 2
      },
      "geometry": {
        "type": "MultiPoint",
        "coordinates": [
          [
            135.54991851322882,
            34.29517604004229
          ]
        ]
      }
    },
    {
      "type": "Feature",
      "properties": {
        "P12_001": 10156,
        "P12_002": "真田庵",
        "P12_003": "30",
        "P12_004": "30343",
        "P12_005": "‐",
        "P12_006": "九度山町1413",
        "P12_007": 2
      },
      "geometry": {
        "type": "MultiPoint",
        "coordinates": [
          [
            135.55973799930928,
            34.29076999963581
          ]
        ]
      }
    },
    {
      "type": "Feature",
      "properties": {
        "P12_001": 10157,
        "P12_002": "松山常次郎記念館",
        "P12_003": "30",
        "P12_004": "30343",
        "P12_005": "‐",
        "P12_006": "九度山町大字九度山1452",
        "P12_007": 2
      },
      "geometry": {
        "type": "MultiPoint",
        "coordinates": [
          [
            135.55989800039242,
            34.29205500043798
          ]
        ]
      }
    },
    {
      "type": "Feature",
      "properties": {
        "P12_001": 10158,
        "P12_002": "大収穫祭",
        "P12_003": "30",
        "P12_004": "30343",
        "P12_005": "‐",
        "P12_006": "九度山町入郷5-5",
        "P12_007": 1
      },
      "geometry": {
        "type": "MultiPoint",
        "coordinates": [
          [
            135.55567463477666,
            34.29308498858143
          ]
        ]
      }
    },
    {
      "type": "Feature",
      "properties": {
        "P12_001": 10159,
        "P12_002": "旧萱野邸（大石順教尼の記念館）",
        "P12_003": "30",
        "P12_004": "30343",
        "P12_005": "‐",
        "P12_006": "九度山町",
        "P12_007": 2
      },
      "geometry": {
        "type": "MultiPoint",
        "coordinates": [
          [
            135.56212999989964,
            34.29038500076723
          ]
        ]
      }
    },
    {
      "type": "Feature",
      "properties": {
        "P12_001": 10160,
        "P12_002": "玉川峡",
        "P12_003": "30",
        "P12_004": "30343",
        "P12_005": "‐",
        "P12_006": "九度山町",
        "P12_007": 1
      },
      "geometry": {
        "type": "MultiPoint",
        "coordinates": [
          [
            135.56799720930383,
            34.27603341990647
          ]
        ]
      }
    },
    {
      "type": "Feature",
      "properties": {
        "P12_001": 10161,
        "P12_002": "高野山（社寺参詣）",
        "P12_003": "30",
        "P12_004": "30344",
        "P12_005": "神社・寺院・教会",
        "P12_006": "高野町",
        "P12_007": 6
      },
      "geometry": {
        "type": "MultiPoint",
        "coordinates": [
          [
            135.58654027751186,
            34.216073888798974
          ]
        ]
      }
    },
    {
      "type": "Feature",
      "properties": {
        "P12_001": 10162,
        "P12_002": "高野山の宿坊の精進料理",
        "P12_003": "30",
        "P12_004": "30344",
        "P12_005": "食",
        "P12_006": "高野町",
        "P12_007": -1
      },
      "geometry": {
        "type": "MultiPoint",
        "coordinates": [
          [
            135.58652499982895,
            34.213261000095144
          ]
        ]
      }
    },
    {
      "type": "Feature",
      "properties": {
        "P12_001": 10163,
        "P12_002": "二の丸温泉",
        "P12_003": "30",
        "P12_004": "30361",
        "P12_005": "‐",
        "P12_006": "湯浅町大字山田1638-1",
        "P12_007": 3
      },
      "geometry": {
        "type": "MultiPoint",
        "coordinates": [
          [
            135.22278399998163,
            34.01543899931045
          ]
        ]
      }
    },
    {
      "type": "Feature",
      "properties": {
        "P12_001": 10164,
        "P12_002": "湯浅町伝統的建造物群保存地区",
        "P12_003": "30",
        "P12_004": "30361",
        "P12_005": "‐",
        "P12_006": "湯浅町湯浅2362",
        "P12_007": 2
      },
      "geometry": {
        "type": "MultiPoint",
        "coordinates": [
          [
            135.17932333400472,
            34.036439167333754
          ]
        ]
      }
    },
    {
      "type": "Feature",
      "properties": {
        "P12_001": 10165,
        "P12_002": "滝原温泉　ほたるの湯",
        "P12_003": "30",
        "P12_004": "30362",
        "P12_005": "‐",
        "P12_006": "広川町大字下津木1539",
        "P12_007": 3
      },
      "geometry": {
        "type": "MultiPoint",
        "coordinates": [
          [
            135.22802499975398,
            33.97221699991468
          ]
        ]
      }
    },
    {
      "type": "Feature",
      "properties": {
        "P12_001": 10166,
        "P12_002": "稲むらの火の館",
        "P12_003": "30",
        "P12_004": "30362",
        "P12_005": "‐",
        "P12_006": "広川町広671",
        "P12_007": 2
      },
      "geometry": {
        "type": "MultiPoint",
        "coordinates": [
          [
            135.17310000026487,
            34.025865000769215
          ]
        ]
      }
    },
    {
      "type": "Feature",
      "properties": {
        "P12_001": 10167,
        "P12_002": "なぎの里球場",
        "P12_003": "30",
        "P12_004": "30366",
        "P12_005": "‐",
        "P12_006": "有田川町熊井?",
        "P12_007": 4
      },
      "geometry": {
        "type": "MultiPoint",
        "coordinates": [
          [
            135.19863900078929,
            34.0377520003546
          ]
        ]
      }
    },
    {
      "type": "Feature",
      "properties": {
        "P12_001": 10168,
        "P12_002": "鷲ヶ峰コスモスパーク",
        "P12_003": "30",
        "P12_004": "30366",
        "P12_005": "‐",
        "P12_006": "有田川町長谷244-2",
        "P12_007": 1
      },
      "geometry": {
        "type": "MultiPoint",
        "coordinates": [
          [
            135.22918300009542,
            34.09671900008186
          ]
        ]
      }
    },
    {
      "type": "Feature",
      "properties": {
        "P12_001": 10169,
        "P12_002": "生石高原",
        "P12_003": "30",
        "P12_004": "30366",
        "P12_005": "‐",
        "P12_006": "有田川町",
        "P12_007": 1
      },
      "geometry": {
        "type": "MultiPoint",
        "coordinates": [
          [
            135.2162694441796,
            34.05749000046319
          ]
        ]
      }
    },
    {
      "type": "Feature",
      "properties": {
        "P12_001": 10170,
        "P12_002": "かなや明恵峡温泉",
        "P12_003": "30",
        "P12_004": "30366",
        "P12_005": "‐",
        "P12_006": "有田川町修理川81-3",
        "P12_007": 3
      },
      "geometry": {
        "type": "MultiPoint",
        "coordinates": [
          [
            135.27330222162027,
            34.037378332943774
          ]
        ]
      }
    },
    {
      "type": "Feature",
      "properties": {
        "P12_001": 10171,
        "P12_002": "海南高原カントリークラブ",
        "P12_003": "30",
        "P12_004": "30366",
        "P12_005": "‐",
        "P12_006": "有田川町上六川542",
        "P12_007": 4
      },
      "geometry": {
        "type": "MultiPoint",
        "coordinates": [
          [
            135.25232833358575,
            34.12114194374578
          ]
        ]
      }
    },
    {
      "type": "Feature",
      "properties": {
        "P12_001": 10172,
        "P12_002": "有田東急ゴルフ倶楽部",
        "P12_003": "30",
        "P12_004": "30366",
        "P12_005": "‐",
        "P12_006": "有田川町大字釜中423-12",
        "P12_007": 4
      },
      "geometry": {
        "type": "MultiPoint",
        "coordinates": [
          [
            135.2350233332603,
            34.11090944491502
          ]
        ]
      }
    },
    {
      "type": "Feature",
      "properties": {
        "P12_001": 10173,
        "P12_002": "しみず温泉健康館",
        "P12_003": "30",
        "P12_004": "30366",
        "P12_005": "‐",
        "P12_006": "有田川町清水1255-1",
        "P12_007": 3
      },
      "geometry": {
        "type": "MultiPoint",
        "coordinates": [
          [
            135.43152899996346,
            34.0827719999279
          ]
        ]
      }
    },
    {
      "type": "Feature",
      "properties": {
        "P12_001": 10174,
        "P12_002": "二川温泉",
        "P12_003": "30",
        "P12_004": "30366",
        "P12_005": "‐",
        "P12_006": "有田川町二川823",
        "P12_007": 3
      },
      "geometry": {
        "type": "MultiPoint",
        "coordinates": [
          [
            135.35423199940726,
            34.06149599994052
          ]
        ]
      }
    },
    {
      "type": "Feature",
      "properties": {
        "P12_001": 10175,
        "P12_002": "温泉館「海の里」みちしおの湯",
        "P12_003": "30",
        "P12_004": "30382",
        "P12_005": "‐",
        "P12_006": "日高町方杭100",
        "P12_007": 3
      },
      "geometry": {
        "type": "MultiPoint",
        "coordinates": [
          [
            135.0870460005725,
            33.938406000136865
          ]
        ]
      }
    },
    {
      "type": "Feature",
      "properties": {
        "P12_001": 10176,
        "P12_002": "白崎海洋公園",
        "P12_003": "30",
        "P12_004": "30383",
        "P12_005": "‐",
        "P12_006": "由良町大引960-1",
        "P12_007": 4
      },
      "geometry": {
        "type": "MultiPoint",
        "coordinates": [
          [
            135.07082666631766,
            33.97628722267723
          ]
        ]
      }
    },
    {
      "type": "Feature",
      "properties": {
        "P12_001": 10177,
        "P12_002": "由良海つり公園",
        "P12_003": "30",
        "P12_004": "30383",
        "P12_005": "‐",
        "P12_006": "由良町神谷465-1",
        "P12_007": 4
      },
      "geometry": {
        "type": "MultiPoint",
        "coordinates": [
          [
            135.09560884147493,
            33.95721449155559
          ]
        ]
      }
    },
    {
      "type": "Feature",
      "properties": {
        "P12_001": 10178,
        "P12_002": "和歌山ゴルフ倶楽部",
        "P12_003": "30",
        "P12_004": "30390",
        "P12_005": "‐",
        "P12_006": "印南町印南4064-1",
        "P12_007": 4
      },
      "geometry": {
        "type": "MultiPoint",
        "coordinates": [
          [
            135.23297699968884,
            33.829850000577096
          ]
        ]
      }
    },
    {
      "type": "Feature",
      "properties": {
        "P12_001": 10179,
        "P12_002": "紀南カントリークラブ",
        "P12_003": "30",
        "P12_004": "30390",
        "P12_005": "‐",
        "P12_006": "印南町大字南谷925",
        "P12_007": 4
      },
      "geometry": {
        "type": "MultiPoint",
        "coordinates": [
          [
            135.2105833330544,
            33.85200305539672
          ]
        ]
      }
    },
    {
      "type": "Feature",
      "properties": {
        "P12_001": 10180,
        "P12_002": "ラ・グレースゴルフ倶楽部",
        "P12_003": "30",
        "P12_004": "30390",
        "P12_005": "‐",
        "P12_006": "印南町大字古井1145",
        "P12_007": 4
      },
      "geometry": {
        "type": "MultiPoint",
        "coordinates": [
          [
            135.2793949998794,
            33.85896583330663
          ]
        ]
      }
    },
    {
      "type": "Feature",
      "properties": {
        "P12_001": 10181,
        "P12_002": "紀州梅干館",
        "P12_003": "30",
        "P12_004": "30391",
        "P12_005": "‐",
        "P12_006": "みなべ町山内1339",
        "P12_007": 2
      },
      "geometry": {
        "type": "MultiPoint",
        "coordinates": [
          [
            135.31384263153234,
            33.772667867328266
          ]
        ]
      }
    },
    {
      "type": "Feature",
      "properties": {
        "P12_001": 10182,
        "P12_002": "南部梅林",
        "P12_003": "30",
        "P12_004": "30391",
        "P12_005": "‐",
        "P12_006": "みなべ町",
        "P12_007": 1
      },
      "geometry": {
        "type": "MultiPoint",
        "coordinates": [
          [
            135.34397599949284,
            33.783240000525666
          ]
        ]
      }
    },
    {
      "type": "Feature",
      "properties": {
        "P12_001": 10183,
        "P12_002": "鶴の湯温泉",
        "P12_003": "30",
        "P12_004": "30391",
        "P12_005": "‐",
        "P12_006": "みなべ町熊瀬川47",
        "P12_007": 3
      },
      "geometry": {
        "type": "MultiPoint",
        "coordinates": [
          [
            135.32002468818882,
            33.83520538691914
          ]
        ]
      }
    },
    {
      "type": "Feature",
      "properties": {
        "P12_001": 10184,
        "P12_002": "道成寺",
        "P12_003": "30",
        "P12_004": "30392",
        "P12_005": "‐",
        "P12_006": "日高川町鐘巻1738",
        "P12_007": 2
      },
      "geometry": {
        "type": "MultiPoint",
        "coordinates": [
          [
            135.17460779011753,
            33.91440175024064
          ]
        ]
      }
    },
    {
      "type": "Feature",
      "properties": {
        "P12_001": 10185,
        "P12_002": "南紀白浜温泉の「崎の湯」と海沿いの外湯巡り",
        "P12_003": "30",
        "P12_004": "30401",
        "P12_005": "温泉",
        "P12_006": "白浜町",
        "P12_007": -1
      },
      "geometry": {
        "type": "MultiPoint",
        "coordinates": [
          [
            135.33703699965793,
            33.6766279997824
          ]
        ]
      }
    },
    {
      "type": "Feature",
      "properties": {
        "P12_001": 10186,
        "P12_002": "白良浜海水浴場",
        "P12_003": "30",
        "P12_004": "30401",
        "P12_005": "‐",
        "P12_006": "白浜町白良浜",
        "P12_007": 4
      },
      "geometry": {
        "type": "MultiPoint",
        "coordinates": [
          [
            135.34548400068616,
            33.680733000227804
          ]
        ]
      }
    },
    {
      "type": "Feature",
      "properties": {
        "P12_001": 10187,
        "P12_002": "アドベンチャーワールド",
        "P12_003": "30",
        "P12_004": "30401",
        "P12_005": "‐",
        "P12_006": "白浜町堅田",
        "P12_007": 4
      },
      "geometry": {
        "type": "MultiPoint",
        "coordinates": [
          [
            135.37274599972818,
            33.66555099977887
          ]
        ]
      }
    },
    {
      "type": "Feature",
      "properties": {
        "P12_001": 10188,
        "P12_002": "白浜エネルギーランド",
        "P12_003": "30",
        "P12_004": "30401",
        "P12_005": "‐",
        "P12_006": "白浜町3083",
        "P12_007": 4
      },
      "geometry": {
        "type": "MultiPoint",
        "coordinates": [
          [
            135.34613140913734,
            33.68005660482851
          ]
        ]
      }
    },
    {
      "type": "Feature",
      "properties": {
        "P12_001": 10189,
        "P12_002": "三段壁洞窟",
        "P12_003": "30",
        "P12_004": "30401",
        "P12_005": "‐",
        "P12_006": "白浜町三段2927-52",
        "P12_007": 1
      },
      "geometry": {
        "type": "MultiPoint",
        "coordinates": [
          [
            135.33542099977933,
            33.665880999708406
          ]
        ]
      }
    },
    {
      "type": "Feature",
      "properties": {
        "P12_001": 10190,
        "P12_002": "白浜海中展望塔",
        "P12_003": "30",
        "P12_004": "30401",
        "P12_005": "‐",
        "P12_006": "白浜町1821",
        "P12_007": 6
      },
      "geometry": {
        "type": "MultiPoint",
        "coordinates": [
          [
            135.33574936474145,
            33.6761182937243
          ]
        ]
      }
    },
    {
      "type": "Feature",
      "properties": {
        "P12_001": 10191,
        "P12_002": "﨑の湯",
        "P12_003": "30",
        "P12_004": "30401",
        "P12_005": "‐",
        "P12_006": "白浜町湯崎1668",
        "P12_007": 3
      },
      "geometry": {
        "type": "MultiPoint",
        "coordinates": [
          [
            135.34816194431835,
            33.67818250042211
          ]
        ]
      }
    },
    {
      "type": "Feature",
      "properties": {
        "P12_001": 10192,
        "P12_002": "白良浜イルミネーション",
        "P12_003": "30",
        "P12_004": "30401",
        "P12_005": "‐",
        "P12_006": "白浜町",
        "P12_007": 1
      },
      "geometry": {
        "type": "MultiPoint",
        "coordinates": [
          [
            135.34460000038973,
            33.6820280005918
          ]
        ]
      }
    },
    {
      "type": "Feature",
      "properties": {
        "P12_001": 10193,
        "P12_002": "桜まつり",
        "P12_003": "30",
        "P12_004": "30401",
        "P12_005": "‐",
        "P12_006": "白浜町",
        "P12_007": 1
      },
      "geometry": {
        "type": "MultiPoint",
        "coordinates": [
          [
            135.34816194431835,
            33.67818250042211
          ]
        ]
      }
    },
    {
      "type": "Feature",
      "properties": {
        "P12_001": 10194,
        "P12_002": "白浜花火大会",
        "P12_003": "30",
        "P12_004": "30401",
        "P12_005": "‐",
        "P12_006": "白浜町",
        "P12_007": 1
      },
      "geometry": {
        "type": "MultiPoint",
        "coordinates": [
          [
            135.34460000038973,
            33.6820280005918
          ]
        ]
      }
    },
    {
      "type": "Feature",
      "properties": {
        "P12_001": 10195,
        "P12_002": "熊野水軍埋蔵金探し",
        "P12_003": "30",
        "P12_004": "30401",
        "P12_005": "‐",
        "P12_006": "白浜町",
        "P12_007": 1
      },
      "geometry": {
        "type": "MultiPoint",
        "coordinates": [
          [
            135.34460000038973,
            33.6820280005918
          ]
        ]
      }
    },
    {
      "type": "Feature",
      "properties": {
        "P12_001": 10196,
        "P12_002": "紀州口熊野マラソン",
        "P12_003": "30",
        "P12_004": "30404",
        "P12_005": "‐",
        "P12_006": "上富田町",
        "P12_007": 1
      },
      "geometry": {
        "type": "MultiPoint",
        "coordinates": [
          [
            135.42881749992773,
            33.69639166654224
          ]
        ]
      }
    },
    {
      "type": "Feature",
      "properties": {
        "P12_001": 10197,
        "P12_002": "イノブータン王国建国祭",
        "P12_003": "30",
        "P12_004": "30406",
        "P12_005": "‐",
        "P12_006": "すさみ町",
        "P12_007": 1
      },
      "geometry": {
        "type": "MultiPoint",
        "coordinates": [
          [
            135.49713400003418,
            33.5526120004435
          ]
        ]
      }
    },
    {
      "type": "Feature",
      "properties": {
        "P12_001": 10198,
        "P12_002": "熊野那智大社",
        "P12_003": "30",
        "P12_004": "30421",
        "P12_005": "神社・寺院・教会",
        "P12_006": "那智勝浦町那智山",
        "P12_007": 2
      },
      "geometry": {
        "type": "MultiPoint",
        "coordinates": [
          [
            135.8900882426783,
            33.66863314640261
          ]
        ]
      }
    },
    {
      "type": "Feature",
      "properties": {
        "P12_001": 10199,
        "P12_002": "那智滝",
        "P12_003": "30",
        "P12_004": "30421",
        "P12_005": "滝",
        "P12_006": "那智勝浦町",
        "P12_007": -1
      },
      "geometry": {
        "type": "MultiPoint",
        "coordinates": [
          [
            135.8875756996589,
            33.67522762945157
          ]
        ]
      }
    },
    {
      "type": "Feature",
      "properties": {
        "P12_001": 10200,
        "P12_002": "高野山熊野三山（熊野那智・大社・熊野速玉大社・熊野本宮大社・青岸渡寺・補陀洛山寺）",
        "P12_003": "30",
        "P12_004": "30421",
        "P12_005": "神社・寺院・教会",
        "P12_006": "那智勝浦町",
        "P12_007": -1
      },
      "geometry": {
        "type": "MultiPoint",
        "coordinates": [
          [
            135.88985399986223,
            33.669162999972514
          ]
        ]
      }
    },
    {
      "type": "Feature",
      "properties": {
        "P12_001": 10201,
        "P12_002": "高野山熊野三山（熊野那智・大社・熊野速玉大社・熊野本宮大社・青岸渡寺・補陀洛山寺）",
        "P12_003": "30",
        "P12_004": "30421",
        "P12_005": "神社・寺院・教会",
        "P12_006": "那智勝浦町",
        "P12_007": -1
      },
      "geometry": {
        "type": "MultiPoint",
        "coordinates": [
          [
            135.93443399982925,
            33.644732000181705
          ]
        ]
      }
    },
    {
      "type": "Feature",
      "properties": {
        "P12_001": 10202,
        "P12_002": "那智山青岸渡寺　三重の塔",
        "P12_003": "30",
        "P12_004": "30421",
        "P12_005": "‐",
        "P12_006": "那智勝浦町那智山68",
        "P12_007": 2
      },
      "geometry": {
        "type": "MultiPoint",
        "coordinates": [
          [
            135.888988000396,
            33.67103999929657
          ]
        ]
      }
    },
    {
      "type": "Feature",
      "properties": {
        "P12_001": 10203,
        "P12_002": "那智の滝　飛龍神社",
        "P12_003": "30",
        "P12_004": "30421",
        "P12_005": "‐",
        "P12_006": "那智勝浦町那智山",
        "P12_007": 2
      },
      "geometry": {
        "type": "MultiPoint",
        "coordinates": [
          [
            135.8874409992028,
            33.67425900025273
          ]
        ]
      }
    },
    {
      "type": "Feature",
      "properties": {
        "P12_001": 10204,
        "P12_002": "紀の松島巡り",
        "P12_003": "30",
        "P12_004": "30421",
        "P12_005": "‐",
        "P12_006": "那智勝浦町勝浦",
        "P12_007": 1
      },
      "geometry": {
        "type": "MultiPoint",
        "coordinates": [
          [
            135.94558999987862,
            33.62799600001546
          ]
        ]
      }
    },
    {
      "type": "Feature",
      "properties": {
        "P12_001": 10205,
        "P12_002": "湯川温泉　きよもんの湯",
        "P12_003": "30",
        "P12_004": "30421",
        "P12_005": "‐",
        "P12_006": "那智勝浦町湯川1062",
        "P12_007": 3
      },
      "geometry": {
        "type": "MultiPoint",
        "coordinates": [
          [
            135.92609400013805,
            33.61722999996459
          ]
        ]
      }
    },
    {
      "type": "Feature",
      "properties": {
        "P12_001": 10206,
        "P12_002": "那智勝浦町花火大会",
        "P12_003": "30",
        "P12_004": "30421",
        "P12_005": "‐",
        "P12_006": "那智勝浦町浜ノ宮",
        "P12_007": 1
      },
      "geometry": {
        "type": "MultiPoint",
        "coordinates": [
          [
            135.93691199988893,
            33.643848999931436
          ]
        ]
      }
    },
    {
      "type": "Feature",
      "properties": {
        "P12_001": 10207,
        "P12_002": "まぐろ祭り",
        "P12_003": "30",
        "P12_004": "30421",
        "P12_005": "‐",
        "P12_006": "那智勝浦町築地7-8-2",
        "P12_007": 1
      },
      "geometry": {
        "type": "MultiPoint",
        "coordinates": [
          [
            135.94353900062447,
            33.626218999906996
          ]
        ]
      }
    },
    {
      "type": "Feature",
      "properties": {
        "P12_001": 10208,
        "P12_002": "熊野古道大門坂",
        "P12_003": "30",
        "P12_004": "30421",
        "P12_005": "‐",
        "P12_006": "那智勝浦町市野々2630",
        "P12_007": 1
      },
      "geometry": {
        "type": "MultiPoint",
        "coordinates": [
          [
            135.8989909994351,
            33.67146700010204
          ]
        ]
      }
    },
    {
      "type": "Feature",
      "properties": {
        "P12_001": 10209,
        "P12_002": "那智海水浴場",
        "P12_003": "30",
        "P12_004": "30421",
        "P12_005": "‐",
        "P12_006": "那智勝浦町浜ノ宮",
        "P12_007": 4
      },
      "geometry": {
        "type": "MultiPoint",
        "coordinates": [
          [
            135.93768799970144,
            33.644204999261376
          ]
        ]
      }
    },
    {
      "type": "Feature",
      "properties": {
        "P12_001": 10210,
        "P12_002": "くじらの博物館",
        "P12_003": "30",
        "P12_004": "30422",
        "P12_005": "‐",
        "P12_006": "太地町太地2934-2",
        "P12_007": 2
      },
      "geometry": {
        "type": "MultiPoint",
        "coordinates": [
          [
            135.94580299980862,
            33.60187899981605
          ]
        ]
      }
    },
    {
      "type": "Feature",
      "properties": {
        "P12_001": 10211,
        "P12_002": "月野瀬温泉ぼたん荘",
        "P12_003": "30",
        "P12_004": "30424",
        "P12_005": "‐",
        "P12_006": "古座川町月野瀬881-1",
        "P12_007": 3
      },
      "geometry": {
        "type": "MultiPoint",
        "coordinates": [
          [
            135.78946300001746,
            33.535897000346324
          ]
        ]
      }
    },
    {
      "type": "Feature",
      "properties": {
        "P12_001": 10212,
        "P12_002": "おくとろ温泉きたやま",
        "P12_003": "30",
        "P12_004": "30427",
        "P12_005": "‐",
        "P12_006": "北山村下尾井476",
        "P12_007": 3
      },
      "geometry": {
        "type": "MultiPoint",
        "coordinates": [
          [
            135.94518722231248,
            33.94002111148518
          ]
        ]
      }
    },
    {
      "type": "Feature",
      "properties": {
        "P12_001": 10213,
        "P12_002": "トルコ記念館",
        "P12_003": "30",
        "P12_004": "30428",
        "P12_005": "‐",
        "P12_006": "串本町樫野1025-26",
        "P12_007": 2
      },
      "geometry": {
        "type": "MultiPoint",
        "coordinates": [
          [
            135.85863100072015,
            33.469184999588094
          ]
        ]
      }
    },
    {
      "type": "Feature",
      "properties": {
        "P12_001": 10214,
        "P12_002": "橋杭海水浴場",
        "P12_003": "30",
        "P12_004": "30428",
        "P12_005": "‐",
        "P12_006": "串本町くじの川",
        "P12_007": 4
      },
      "geometry": {
        "type": "MultiPoint",
        "coordinates": [
          [
            135.7909400006805,
            33.484889999873644
          ]
        ]
      }
    }
  ],
  "bbox": [
    135.01511011503987,
    33.469184999588094,
    135.99550472246506,
    34.345268332867306
  ]
}